{"type":"FeatureCollection","features":[{"type":"Feature","properties":{"pop":3133,"dens":3110.1171142759513,"hu":2033},"geometry":{"type":"Polygon","coordinates":[[[-111.6544,33.4369],[-111.6499,33.4349],[-111.65,33.4224],[-111.6327,33.4224],[-111.6326,33.4369],[-111.6387,33.4362],[-111.6421,33.4369],[-111.6544,33.4369]]]}},{"type":"Feature","properties":{"pop":2855,"dens":1460.2553390399746,"hu":1056},"geometry":{"type":"Polygon","coordinates":[[[-111.6845,33.423],[-111.65,33.4224],[-111.6499,33.4349],[-111.6544,33.4369],[-111.6843,33.4372],[-111.6845,33.423]]]}},{"type":"Feature","properties":{"pop":1693,"dens":2790.901611173525,"hu":765},"geometry":{"type":"Polygon","coordinates":[[[-111.6842,33.4493],[-111.6842,33.4485],[-111.6814,33.4486],[-111.6782,33.4497],[-111.6765,33.4491],[-111.674,33.4467],[-111.6734,33.4429],[-111.6693,33.4402],[-111.6689,33.4369],[-111.6544,33.4369],[-111.6726,33.4515],[-111.6841,33.4517],[-111.6842,33.4493]]]}},{"type":"Feature","properties":{"pop":2452,"dens":1399.973521130628,"hu":1091},"geometry":{"type":"Polygon","coordinates":[[[-111.6725,33.4515],[-111.6544,33.4369],[-111.6421,33.4369],[-111.6387,33.4362],[-111.6326,33.4369],[-111.6327,33.4439],[-111.6353,33.4483],[-111.6342,33.4514],[-111.6725,33.4515]]]}},{"type":"Feature","properties":{"pop":1790,"dens":3081.9910824655703,"hu":563},"geometry":{"type":"Polygon","coordinates":[[[-111.6843,33.4385],[-111.6843,33.4372],[-111.6832,33.437],[-111.6689,33.4369],[-111.6693,33.4402],[-111.6734,33.4429],[-111.6742,33.4471],[-111.6777,33.4497],[-111.6814,33.4486],[-111.6842,33.4485],[-111.6843,33.4385]]]}},{"type":"Feature","properties":{"pop":2266,"dens":2185.9998574612764,"hu":1009},"geometry":{"type":"Polygon","coordinates":[[[-111.6839,33.4671],[-111.6839,33.4663],[-111.6725,33.4663],[-111.672,33.4695],[-111.6663,33.4747],[-111.6682,33.4778],[-111.6666,33.4833],[-111.6737,33.4847],[-111.6771,33.4843],[-111.6797,33.4849],[-111.6808,33.4814],[-111.6839,33.4808],[-111.6839,33.4671]]]}},{"type":"Feature","properties":{"pop":2043,"dens":1420.4513257837477,"hu":863},"geometry":{"type":"Polygon","coordinates":[[[-111.6839,33.4831],[-111.6839,33.4808],[-111.6808,33.4814],[-111.6786,33.49],[-111.6771,33.4913],[-111.6745,33.4918],[-111.666,33.4908],[-111.6646,33.4898],[-111.6633,33.4875],[-111.6595,33.4852],[-111.6586,33.4824],[-111.6608,33.4782],[-111.6679,33.4738],[-111.6722,33.469],[-111.6725,33.4663],[-111.6672,33.4662],[-111.6673,33.4735],[-111.6586,33.4735],[-111.6585,33.4786],[-111.6556,33.4805],[-111.6531,33.4806],[-111.6531,33.4789],[-111.6499,33.4788],[-111.6498,33.4875],[-111.6511,33.4888],[-111.6499,33.495],[-111.6839,33.4952],[-111.6839,33.4831]]]}},{"type":"Feature","properties":{"pop":2407,"dens":3420.12005484943,"hu":935},"geometry":{"type":"Polygon","coordinates":[[[-111.6792,33.4863],[-111.6797,33.4849],[-111.6778,33.4844],[-111.6737,33.4847],[-111.6666,33.4833],[-111.6682,33.4778],[-111.6663,33.4747],[-111.661,33.4779],[-111.6586,33.4824],[-111.6595,33.4852],[-111.6631,33.4874],[-111.6647,33.49],[-111.6667,33.4911],[-111.674,33.4918],[-111.6768,33.4914],[-111.6788,33.4896],[-111.6792,33.4863]]]}},{"type":"Feature","properties":{"pop":2635,"dens":1744.8154483751691,"hu":953},"geometry":{"type":"Polygon","coordinates":[[[-111.6841,33.4518],[-111.6672,33.4514],[-111.6672,33.4587],[-111.6499,33.4587],[-111.6499,33.4662],[-111.6839,33.4663],[-111.6841,33.4518]]]}},{"type":"Feature","properties":{"pop":1846,"dens":1282.388416575567,"hu":812},"geometry":{"type":"Polygon","coordinates":[[[-111.6672,33.4533],[-111.6672,33.4514],[-111.6342,33.4514],[-111.6327,33.4546],[-111.6317,33.462],[-111.6357,33.4629],[-111.6402,33.466],[-111.6499,33.4662],[-111.6499,33.4587],[-111.6672,33.4587],[-111.6672,33.4533]]]}},{"type":"Feature","properties":{"pop":2370,"dens":1167.4079055070595,"hu":1053},"geometry":{"type":"Polygon","coordinates":[[[-111.6353,33.4487],[-111.635,33.4471],[-111.6327,33.4437],[-111.6326,33.4369],[-111.6153,33.4368],[-111.6159,33.4409],[-111.6151,33.4515],[-111.6152,33.4658],[-111.6304,33.4662],[-111.6322,33.4602],[-111.6328,33.4541],[-111.6353,33.4487]]]}},{"type":"Feature","properties":{"pop":1584,"dens":3158.7144331557065,"hu":585},"geometry":{"type":"Polygon","coordinates":[[[-111.6327,33.4301],[-111.6327,33.4296],[-111.6153,33.4296],[-111.6153,33.4368],[-111.6326,33.4369],[-111.6327,33.4301]]]}},{"type":"Feature","properties":{"pop":1090,"dens":4420.620851547442,"hu":441},"geometry":{"type":"Polygon","coordinates":[[[-111.598,33.423],[-111.598,33.4223],[-111.5893,33.4223],[-111.5893,33.4295],[-111.598,33.4295],[-111.598,33.423]]]}},{"type":"Feature","properties":{"pop":2172,"dens":4365.081799514048,"hu":802},"geometry":{"type":"Polygon","coordinates":[[[-111.5893,33.4224],[-111.5807,33.4223],[-111.5807,33.4368],[-111.5893,33.4368],[-111.5893,33.4224]]]}},{"type":"Feature","properties":{"pop":1244,"dens":4049.551406919809,"hu":844},"geometry":{"type":"Polygon","coordinates":[[[-111.6845,33.4169],[-111.6845,33.4157],[-111.6761,33.4153],[-111.6755,33.4193],[-111.6732,33.4191],[-111.6714,33.4202],[-111.6706,33.4224],[-111.6845,33.4229],[-111.6845,33.4169]]]}},{"type":"Feature","properties":{"pop":1794,"dens":9525.993773361026,"hu":1125},"geometry":{"type":"Polygon","coordinates":[[[-111.6761,33.416],[-111.6761,33.4153],[-111.6753,33.4152],[-111.6674,33.4152],[-111.6674,33.4224],[-111.6706,33.4224],[-111.6707,33.421],[-111.6715,33.4201],[-111.6732,33.4191],[-111.6753,33.4195],[-111.676,33.4183],[-111.6761,33.416]]]}},{"type":"Feature","properties":{"pop":783,"dens":3103.4309101660124,"hu":254},"geometry":{"type":"Polygon","coordinates":[[[-111.6674,33.4155],[-111.6587,33.4152],[-111.6587,33.4224],[-111.6674,33.4224],[-111.6674,33.4155]]]}},{"type":"Feature","properties":{"pop":1135,"dens":4525.185012795268,"hu":708},"geometry":{"type":"Polygon","coordinates":[[[-111.6327,33.4159],[-111.6327,33.4151],[-111.624,33.4151],[-111.624,33.4224],[-111.6327,33.4224],[-111.6327,33.4159]]]}},{"type":"Feature","properties":{"pop":1657,"dens":5155.586669418888,"hu":720},"geometry":{"type":"Polygon","coordinates":[[[-111.7017,33.4374],[-111.7017,33.4328],[-111.6905,33.4333],[-111.6903,33.4323],[-111.6885,33.4327],[-111.6844,33.4323],[-111.6843,33.4372],[-111.7017,33.4374]]]}},{"type":"Feature","properties":{"pop":1900,"dens":358.24643157705486,"hu":1718},"geometry":{"type":"Polygon","coordinates":[[[-111.736,33.4533],[-111.736,33.4518],[-111.7102,33.4519],[-111.7102,33.4547],[-111.7114,33.4583],[-111.71,33.4618],[-111.7099,33.4663],[-111.7013,33.4663],[-111.7013,33.4811],[-111.7023,33.4846],[-111.7014,33.4867],[-111.7003,33.4875],[-111.7007,33.4898],[-111.6994,33.4907],[-111.6998,33.4918],[-111.6987,33.4947],[-111.7018,33.4977],[-111.7127,33.4979],[-111.7126,33.4997],[-111.7148,33.4997],[-111.7154,33.498],[-111.7179,33.4978],[-111.7198,33.4964],[-111.7201,33.4942],[-111.7233,33.4933],[-111.7242,33.4916],[-111.7239,33.4905],[-111.7259,33.4892],[-111.7271,33.4867],[-111.7284,33.4862],[-111.7311,33.4882],[-111.7323,33.4882],[-111.7331,33.4881],[-111.7352,33.4859],[-111.7357,33.4825],[-111.736,33.4533]]]}},{"type":"Feature","properties":{"pop":1632,"dens":3135.286270565018,"hu":1375},"geometry":{"type":"Polygon","coordinates":[[[-111.7114,33.4586],[-111.7102,33.4547],[-111.7102,33.4519],[-111.7015,33.4519],[-111.7013,33.4663],[-111.7099,33.4663],[-111.71,33.4618],[-111.7114,33.4586]]]}},{"type":"Feature","properties":{"pop":1720,"dens":1807.1812864755732,"hu":836},"geometry":{"type":"Polygon","coordinates":[[[-111.7023,33.4845],[-111.7015,33.4819],[-111.6953,33.4824],[-111.6921,33.4843],[-111.6912,33.486],[-111.6877,33.4896],[-111.6839,33.49],[-111.684,33.4999],[-111.7013,33.4997],[-111.7017,33.4972],[-111.6987,33.4947],[-111.6998,33.4918],[-111.6994,33.4907],[-111.7007,33.4898],[-111.7003,33.4875],[-111.7016,33.4865],[-111.7023,33.4845]]]}},{"type":"Feature","properties":{"pop":1117,"dens":3515.1509339654417,"hu":523},"geometry":{"type":"Polygon","coordinates":[[[-111.7015,33.4819],[-111.7013,33.4808],[-111.6839,33.4808],[-111.6839,33.49],[-111.6877,33.4896],[-111.6912,33.486],[-111.6921,33.4843],[-111.695,33.4825],[-111.7015,33.4819]]]}},{"type":"Feature","properties":{"pop":1636,"dens":6695.268170236004,"hu":452},"geometry":{"type":"Polygon","coordinates":[[[-111.7294,33.43],[-111.7256,33.4229],[-111.7191,33.4228],[-111.719,33.4301],[-111.7294,33.43]]]}},{"type":"Feature","properties":{"pop":2035,"dens":5129.485748967054,"hu":753},"geometry":{"type":"Polygon","coordinates":[[[-111.7364,33.4251],[-111.7364,33.4228],[-111.7256,33.4229],[-111.7334,33.4373],[-111.7364,33.4372],[-111.7364,33.4251]]]}},{"type":"Feature","properties":{"pop":1785,"dens":4975.764944971684,"hu":765},"geometry":{"type":"Polygon","coordinates":[[[-111.7334,33.4373],[-111.7294,33.43],[-111.719,33.4301],[-111.719,33.4373],[-111.7334,33.4373]]]}},{"type":"Feature","properties":{"pop":2460,"dens":4931.274471716993,"hu":925},"geometry":{"type":"Polygon","coordinates":[[[-111.719,33.431],[-111.719,33.4301],[-111.7018,33.4301],[-111.7017,33.4374],[-111.719,33.4373],[-111.719,33.431]]]}},{"type":"Feature","properties":{"pop":1671,"dens":4427.562756765445,"hu":458},"geometry":{"type":"Polygon","coordinates":[[[-111.7016,33.4422],[-111.7017,33.441],[-111.693,33.441],[-111.693,33.4374],[-111.6843,33.4372],[-111.6842,33.4446],[-111.7016,33.4446],[-111.7016,33.4422]]]}},{"type":"Feature","properties":{"pop":1542,"dens":6154.3627933671505,"hu":732},"geometry":{"type":"Polygon","coordinates":[[[-111.7016,33.446],[-111.7016,33.4446],[-111.6929,33.4446],[-111.6928,33.4519],[-111.7015,33.4519],[-111.7016,33.446]]]}},{"type":"Feature","properties":{"pop":1101,"dens":4398.132820923438,"hu":455},"geometry":{"type":"Polygon","coordinates":[[[-111.6929,33.4454],[-111.6929,33.4446],[-111.6842,33.4446],[-111.6841,33.4517],[-111.6928,33.4519],[-111.6929,33.4454]]]}},{"type":"Feature","properties":{"pop":1177,"dens":9356.167683691296,"hu":442},"geometry":{"type":"Polygon","coordinates":[[[-111.7017,33.4381],[-111.7017,33.4374],[-111.693,33.4374],[-111.693,33.441],[-111.7017,33.441],[-111.7017,33.4381]]]}},{"type":"Feature","properties":{"pop":2233,"dens":3664.734339614382,"hu":920},"geometry":{"type":"Polygon","coordinates":[[[-111.7013,33.4665],[-111.6839,33.4663],[-111.6839,33.473],[-111.6868,33.4747],[-111.6894,33.4754],[-111.7012,33.4754],[-111.7013,33.4665]]]}},{"type":"Feature","properties":{"pop":1991,"dens":5123.824828952785,"hu":863},"geometry":{"type":"Polygon","coordinates":[[[-111.7013,33.4808],[-111.7012,33.4754],[-111.6894,33.4754],[-111.6868,33.4747],[-111.6839,33.473],[-111.6839,33.4808],[-111.7013,33.4808]]]}},{"type":"Feature","properties":{"pop":1725,"dens":3501.561113017189,"hu":799},"geometry":{"type":"Polygon","coordinates":[[[-111.6928,33.4522],[-111.6841,33.4517],[-111.6839,33.4663],[-111.6926,33.4663],[-111.6927,33.458],[-111.6921,33.4556],[-111.6928,33.4522]]]}},{"type":"Feature","properties":{"pop":1282,"dens":2537.5993099308785,"hu":882},"geometry":{"type":"Polygon","coordinates":[[[-111.7015,33.4534],[-111.7015,33.4519],[-111.6928,33.4519],[-111.6921,33.4556],[-111.6927,33.458],[-111.6926,33.4663],[-111.7013,33.4663],[-111.7015,33.4534]]]}},{"type":"Feature","properties":{"pop":1991,"dens":3957.4398212117985,"hu":2818},"geometry":{"type":"Polygon","coordinates":[[[-111.7364,33.419],[-111.7364,33.4155],[-111.7191,33.4156],[-111.7191,33.4228],[-111.7364,33.4228],[-111.7364,33.419]]]}},{"type":"Feature","properties":{"pop":683,"dens":2740.559465135451,"hu":487},"geometry":{"type":"Polygon","coordinates":[[[-111.7105,33.4166],[-111.7105,33.4156],[-111.7017,33.4156],[-111.7018,33.4228],[-111.7105,33.4228],[-111.7105,33.4166]]]}},{"type":"Feature","properties":{"pop":1028,"dens":4143.8695804231165,"hu":687},"geometry":{"type":"Polygon","coordinates":[[[-111.7191,33.4163],[-111.7191,33.4156],[-111.7105,33.4156],[-111.7105,33.4228],[-111.7191,33.4228],[-111.7191,33.4163]]]}},{"type":"Feature","properties":{"pop":1127,"dens":4484.705280900129,"hu":733},"geometry":{"type":"Polygon","coordinates":[[[-111.6932,33.4162],[-111.6932,33.4156],[-111.6845,33.4157],[-111.6845,33.4229],[-111.6931,33.4229],[-111.6932,33.4162]]]}},{"type":"Feature","properties":{"pop":1856,"dens":1852.576936897923,"hu":713},"geometry":{"type":"Polygon","coordinates":[[[-111.7364,33.4373],[-111.719,33.4373],[-111.7188,33.4519],[-111.736,33.4518],[-111.7364,33.4373]]]}},{"type":"Feature","properties":{"pop":1707,"dens":3600.839995938962,"hu":862},"geometry":{"type":"Polygon","coordinates":[[[-111.719,33.438],[-111.719,33.4373],[-111.7071,33.4374],[-111.707,33.4415],[-111.7062,33.4447],[-111.7068,33.4466],[-111.7096,33.4496],[-111.7125,33.4482],[-111.7164,33.4451],[-111.7189,33.4446],[-111.719,33.438]]]}},{"type":"Feature","properties":{"pop":2333,"dens":4455.2649202495995,"hu":1397},"geometry":{"type":"Polygon","coordinates":[[[-111.7188,33.4482],[-111.7189,33.4446],[-111.7178,33.4447],[-111.7096,33.4496],[-111.7062,33.4454],[-111.7071,33.4374],[-111.7017,33.4374],[-111.7015,33.4519],[-111.7188,33.4519],[-111.7188,33.4482]]]}},{"type":"Feature","properties":{"pop":2292,"dens":3580.685608827958,"hu":738},"geometry":{"type":"Polygon","coordinates":[[[-111.808,33.4515],[-111.7876,33.4518],[-111.7876,33.4571],[-111.7898,33.4606],[-111.7873,33.4644],[-111.7928,33.4636],[-111.7987,33.4602],[-111.8044,33.4555],[-111.808,33.4515]]]}},{"type":"Feature","properties":{"pop":1128,"dens":4431.892357974521,"hu":373},"geometry":{"type":"Polygon","coordinates":[[[-111.7879,33.4578],[-111.7876,33.4518],[-111.7785,33.4518],[-111.7785,33.4553],[-111.7794,33.4555],[-111.7793,33.4591],[-111.7875,33.4591],[-111.7879,33.4578]]]}},{"type":"Feature","properties":{"pop":1536,"dens":6440.307799050518,"hu":669},"geometry":{"type":"Polygon","coordinates":[[[-111.7794,33.4559],[-111.7785,33.4553],[-111.7785,33.4518],[-111.7708,33.4518],[-111.7707,33.4591],[-111.7793,33.4591],[-111.7794,33.4559]]]}},{"type":"Feature","properties":{"pop":2453,"dens":4903.262840971862,"hu":638},"geometry":{"type":"Polygon","coordinates":[[[-111.7898,33.4606],[-111.7896,33.4595],[-111.7879,33.4578],[-111.7875,33.4591],[-111.7707,33.4591],[-111.7706,33.4664],[-111.7809,33.4667],[-111.7873,33.4644],[-111.7898,33.4606]]]}},{"type":"Feature","properties":{"pop":2403,"dens":4573.6050971795485,"hu":816},"geometry":{"type":"Polygon","coordinates":[[[-111.7707,33.453],[-111.7708,33.4518],[-111.7534,33.4519],[-111.7533,33.4591],[-111.762,33.4591],[-111.762,33.4605],[-111.7632,33.4605],[-111.7707,33.4591],[-111.7707,33.453]]]}},{"type":"Feature","properties":{"pop":2017,"dens":4228.91008340684,"hu":589},"geometry":{"type":"Polygon","coordinates":[[[-111.7707,33.4599],[-111.7707,33.4591],[-111.7687,33.4591],[-111.762,33.4605],[-111.762,33.4591],[-111.7533,33.4591],[-111.7533,33.4664],[-111.7706,33.4664],[-111.7707,33.4599]]]}},{"type":"Feature","properties":{"pop":1256,"dens":615.0749976171957,"hu":332},"geometry":{"type":"Polygon","coordinates":[[[-111.7534,33.452],[-111.736,33.4518],[-111.7357,33.4825],[-111.7352,33.4853],[-111.7388,33.4848],[-111.7398,33.4826],[-111.7443,33.4825],[-111.7443,33.482],[-111.7469,33.4816],[-111.7513,33.4767],[-111.7534,33.4754],[-111.7534,33.452]]]}},{"type":"Feature","properties":{"pop":1328,"dens":2531.0084087533332,"hu":568},"geometry":{"type":"Polygon","coordinates":[[[-111.8311,33.4516],[-111.8224,33.4515],[-111.8221,33.4698],[-111.8264,33.4698],[-111.8264,33.4665],[-111.8287,33.4625],[-111.831,33.4625],[-111.8311,33.4516]]]}},{"type":"Feature","properties":{"pop":2038,"dens":6095.146738847542,"hu":863},"geometry":{"type":"Polygon","coordinates":[[[-111.8224,33.4526],[-111.8224,33.4515],[-111.808,33.4515],[-111.8057,33.4542],[-111.8136,33.4543],[-111.8136,33.4589],[-111.8221,33.4589],[-111.8224,33.4526]]]}},{"type":"Feature","properties":{"pop":1032,"dens":967.4379706267354,"hu":305},"geometry":{"type":"Polygon","coordinates":[[[-111.8224,33.4664],[-111.8224,33.4588],[-111.8136,33.4589],[-111.8136,33.4543],[-111.8057,33.4542],[-111.8006,33.4589],[-111.7955,33.4622],[-111.7922,33.4638],[-111.7873,33.4646],[-111.7873,33.4664],[-111.8224,33.4664]]]}},{"type":"Feature","properties":{"pop":1766,"dens":659.2481191748292,"hu":487},"geometry":{"type":"Polygon","coordinates":[[[-111.7875,33.4845],[-111.7873,33.4644],[-111.7809,33.4667],[-111.7783,33.467],[-111.7763,33.4664],[-111.7533,33.4664],[-111.7534,33.4754],[-111.7513,33.4767],[-111.7469,33.4816],[-111.7443,33.482],[-111.7443,33.4847],[-111.7875,33.4845]]]}},{"type":"Feature","properties":{"pop":1794,"dens":7066.842648860317,"hu":776},"geometry":{"type":"Polygon","coordinates":[[[-111.8399,33.4369],[-111.8312,33.4368],[-111.8312,33.4442],[-111.8398,33.4442],[-111.8399,33.4369]]]}},{"type":"Feature","properties":{"pop":1568,"dens":5141.608453930972,"hu":589},"geometry":{"type":"Polygon","coordinates":[[[-111.8312,33.4369],[-111.8226,33.4368],[-111.8224,33.4456],[-111.8312,33.4456],[-111.8312,33.4369]]]}},{"type":"Feature","properties":{"pop":2195,"dens":8758.631081704209,"hu":828},"geometry":{"type":"Polygon","coordinates":[[[-111.8398,33.446],[-111.8398,33.4442],[-111.8312,33.4442],[-111.8311,33.4515],[-111.8397,33.4514],[-111.8398,33.446]]]}},{"type":"Feature","properties":{"pop":1200,"dens":5917.027908804188,"hu":487},"geometry":{"type":"Polygon","coordinates":[[[-111.8312,33.4465],[-111.8312,33.4456],[-111.8224,33.4456],[-111.8224,33.4515],[-111.8311,33.4515],[-111.8312,33.4465]]]}},{"type":"Feature","properties":{"pop":1479,"dens":13030.803964782503,"hu":610},"geometry":{"type":"Polygon","coordinates":[[[-111.8226,33.4369],[-111.8161,33.4368],[-111.8169,33.4411],[-111.8165,33.4421],[-111.8219,33.4409],[-111.8219,33.4402],[-111.8226,33.4402],[-111.8226,33.4369]]]}},{"type":"Feature","properties":{"pop":2303,"dens":5752.280635510298,"hu":849},"geometry":{"type":"Polygon","coordinates":[[[-111.8226,33.4407],[-111.8226,33.4402],[-111.8219,33.4402],[-111.8219,33.4409],[-111.8165,33.4421],[-111.808,33.4515],[-111.8224,33.4515],[-111.8226,33.4407]]]}},{"type":"Feature","properties":{"pop":1092,"dens":6883.011477370391,"hu":370},"geometry":{"type":"Polygon","coordinates":[[[-111.8138,33.4449],[-111.8138,33.4443],[-111.8069,33.4446],[-111.8066,33.4456],[-111.805,33.4456],[-111.8049,33.4515],[-111.808,33.4515],[-111.8138,33.4449]]]}},{"type":"Feature","properties":{"pop":2382,"dens":6541.532281236568,"hu":967},"geometry":{"type":"Polygon","coordinates":[[[-111.8169,33.4411],[-111.8161,33.4368],[-111.8098,33.4367],[-111.8053,33.4345],[-111.805,33.4456],[-111.8066,33.4456],[-111.8069,33.4446],[-111.8138,33.4443],[-111.8138,33.445],[-111.8169,33.4411]]]}},{"type":"Feature","properties":{"pop":2756,"dens":5565.384381093137,"hu":870},"geometry":{"type":"Polygon","coordinates":[[[-111.7881,33.4248],[-111.7881,33.4227],[-111.771,33.4227],[-111.771,33.43],[-111.788,33.4299],[-111.7881,33.4248]]]}},{"type":"Feature","properties":{"pop":1075,"dens":4346.899919180252,"hu":412},"geometry":{"type":"Polygon","coordinates":[[[-111.788,33.4306],[-111.788,33.4299],[-111.7796,33.4299],[-111.7796,33.4359],[-111.7785,33.4359],[-111.7785,33.4372],[-111.7879,33.4372],[-111.788,33.4306]]]}},{"type":"Feature","properties":{"pop":1448,"dens":5898.783831787179,"hu":418},"geometry":{"type":"Polygon","coordinates":[[[-111.7796,33.4309],[-111.7796,33.4299],[-111.771,33.43],[-111.7709,33.4372],[-111.7785,33.4372],[-111.7785,33.4359],[-111.7796,33.4359],[-111.7796,33.4309]]]}},{"type":"Feature","properties":{"pop":2559,"dens":4727.317137369743,"hu":950},"geometry":{"type":"Polygon","coordinates":[[[-111.7878,33.4444],[-111.7775,33.4441],[-111.7749,33.4431],[-111.7709,33.4431],[-111.7708,33.4518],[-111.7876,33.4518],[-111.7878,33.4444]]]}},{"type":"Feature","properties":{"pop":1537,"dens":3487.01680996193,"hu":472},"geometry":{"type":"Polygon","coordinates":[[[-111.7879,33.4385],[-111.7879,33.4372],[-111.7709,33.4372],[-111.7709,33.4431],[-111.7749,33.4431],[-111.7777,33.4441],[-111.7878,33.444],[-111.7879,33.4385]]]}},{"type":"Feature","properties":{"pop":1911,"dens":3813.9945228603574,"hu":789},"geometry":{"type":"Polygon","coordinates":[[[-111.8051,33.4444],[-111.7878,33.4444],[-111.7876,33.4518],[-111.8049,33.4515],[-111.8051,33.4444]]]}},{"type":"Feature","properties":{"pop":2456,"dens":4906.577253406102,"hu":860},"geometry":{"type":"Polygon","coordinates":[[[-111.8052,33.4382],[-111.8053,33.437],[-111.7879,33.4372],[-111.7878,33.4444],[-111.8051,33.4442],[-111.8052,33.4382]]]}},{"type":"Feature","properties":{"pop":2107,"dens":10935.223305145848,"hu":900},"geometry":{"type":"Polygon","coordinates":[[[-111.771,33.4243],[-111.771,33.4227],[-111.7566,33.4228],[-111.7593,33.4264],[-111.771,33.4264],[-111.771,33.4243]]]}},{"type":"Feature","properties":{"pop":1535,"dens":3284.9321702978696,"hu":565},"geometry":{"type":"Polygon","coordinates":[[[-111.7665,33.4373],[-111.7566,33.4228],[-111.7536,33.4228],[-111.7536,33.4373],[-111.7665,33.4373]]]}},{"type":"Feature","properties":{"pop":1048,"dens":3003.1338167574604,"hu":329},"geometry":{"type":"Polygon","coordinates":[[[-111.771,33.4277],[-111.771,33.4264],[-111.7593,33.4264],[-111.759,33.4259],[-111.7665,33.4373],[-111.7709,33.4372],[-111.771,33.4277]]]}},{"type":"Feature","properties":{"pop":1707,"dens":1702.5842022207478,"hu":441},"geometry":{"type":"Polygon","coordinates":[[[-111.7536,33.4376],[-111.7364,33.4372],[-111.736,33.4518],[-111.7534,33.4519],[-111.7536,33.4376]]]}},{"type":"Feature","properties":{"pop":2045,"dens":2035.0184220792648,"hu":616},"geometry":{"type":"Polygon","coordinates":[[[-111.7709,33.4381],[-111.7709,33.4372],[-111.7536,33.4373],[-111.7534,33.4519],[-111.7708,33.4518],[-111.7709,33.4381]]]}},{"type":"Feature","properties":{"pop":2270,"dens":9685.556757400142,"hu":725},"geometry":{"type":"Polygon","coordinates":[[[-111.7445,33.4255],[-111.7445,33.4228],[-111.7364,33.4228],[-111.7364,33.43],[-111.7445,33.43],[-111.7445,33.4255]]]}},{"type":"Feature","properties":{"pop":1098,"dens":2210.03492660557,"hu":343},"geometry":{"type":"Polygon","coordinates":[[[-111.7536,33.4312],[-111.7534,33.43],[-111.7364,33.43],[-111.7364,33.4372],[-111.7536,33.4373],[-111.7536,33.4312]]]}},{"type":"Feature","properties":{"pop":1480,"dens":5668.151649633534,"hu":500},"geometry":{"type":"Polygon","coordinates":[[[-111.7536,33.4237],[-111.7536,33.4228],[-111.7445,33.4228],[-111.7445,33.43],[-111.7536,33.43],[-111.7536,33.4237]]]}},{"type":"Feature","properties":{"pop":1049,"dens":3741.4207063303766,"hu":1280},"geometry":{"type":"Polygon","coordinates":[[[-111.7711,33.4174],[-111.7711,33.4155],[-111.7614,33.4155],[-111.7613,33.4227],[-111.771,33.4227],[-111.7711,33.4174]]]}},{"type":"Feature","properties":{"pop":1354,"dens":6148.006742845243,"hu":943},"geometry":{"type":"Polygon","coordinates":[[[-111.7613,33.4227],[-111.7614,33.4155],[-111.7537,33.4155],[-111.7536,33.4228],[-111.7613,33.4227]]]}},{"type":"Feature","properties":{"pop":1014,"dens":4277.018641024341,"hu":1008},"geometry":{"type":"Polygon","coordinates":[[[-111.7537,33.4172],[-111.7537,33.4155],[-111.7456,33.4155],[-111.7454,33.4228],[-111.7536,33.4228],[-111.7537,33.4172]]]}},{"type":"Feature","properties":{"pop":3247,"dens":12328.749306124118,"hu":2168},"geometry":{"type":"Polygon","coordinates":[[[-111.7456,33.417],[-111.7456,33.4155],[-111.7364,33.4155],[-111.7364,33.4228],[-111.7454,33.4228],[-111.7456,33.417]]]}},{"type":"Feature","properties":{"pop":1862,"dens":7425.705337941866,"hu":1413},"geometry":{"type":"Polygon","coordinates":[[[-111.7711,33.4099],[-111.7711,33.4082],[-111.7625,33.4082],[-111.7625,33.4155],[-111.7711,33.4155],[-111.7711,33.4099]]]}},{"type":"Feature","properties":{"pop":604,"dens":5150.68163802218,"hu":723},"geometry":{"type":"Polygon","coordinates":[[[-111.7625,33.4155],[-111.7625,33.4118],[-111.7617,33.4124],[-111.7542,33.4121],[-111.7537,33.4131],[-111.7537,33.4155],[-111.7625,33.4155]]]}},{"type":"Feature","properties":{"pop":765,"dens":5623.624657612353,"hu":607},"geometry":{"type":"Polygon","coordinates":[[[-111.7624,33.4097],[-111.7625,33.4082],[-111.7538,33.4082],[-111.7537,33.4131],[-111.7542,33.4121],[-111.7617,33.4124],[-111.7625,33.4118],[-111.7624,33.4097]]]}},{"type":"Feature","properties":{"pop":645,"dens":4730.375538789892,"hu":414},"geometry":{"type":"Polygon","coordinates":[[[-111.7537,33.4098],[-111.7538,33.4082],[-111.7467,33.4083],[-111.7515,33.4155],[-111.7537,33.4155],[-111.7537,33.4098]]]}},{"type":"Feature","properties":{"pop":1462,"dens":6572.780046175541,"hu":539},"geometry":{"type":"Polygon","coordinates":[[[-111.7513,33.4155],[-111.7467,33.4083],[-111.7451,33.4083],[-111.7451,33.4127],[-111.7381,33.4123],[-111.738,33.4115],[-111.7364,33.4119],[-111.7364,33.4155],[-111.7513,33.4155]]]}},{"type":"Feature","properties":{"pop":1602,"dens":11494.616069532602,"hu":720},"geometry":{"type":"Polygon","coordinates":[[[-111.7451,33.4091],[-111.7451,33.4083],[-111.7364,33.4083],[-111.7364,33.4119],[-111.738,33.4115],[-111.7381,33.4123],[-111.7451,33.4127],[-111.7451,33.4091]]]}},{"type":"Feature","properties":{"pop":1500,"dens":7952.1768815346695,"hu":547},"geometry":{"type":"Polygon","coordinates":[[[-111.798,33.4298],[-111.7917,33.4226],[-111.7881,33.4227],[-111.788,33.4299],[-111.798,33.4298]]]}},{"type":"Feature","properties":{"pop":509,"dens":2005.6166376726846,"hu":209},"geometry":{"type":"Polygon","coordinates":[[[-111.8053,33.4246],[-111.8053,33.4224],[-111.7984,33.4225],[-111.7981,33.4278],[-111.8016,33.4283],[-111.8017,33.4297],[-111.798,33.4298],[-111.8053,33.4345],[-111.8053,33.4246]]]}},{"type":"Feature","properties":{"pop":1326,"dens":10480.563543698943,"hu":519},"geometry":{"type":"Polygon","coordinates":[[[-111.8017,33.4297],[-111.8016,33.4283],[-111.7981,33.4278],[-111.7984,33.4225],[-111.7917,33.4226],[-111.798,33.4298],[-111.8017,33.4297]]]}},{"type":"Feature","properties":{"pop":1578,"dens":3650.8611370550143,"hu":573},"geometry":{"type":"Polygon","coordinates":[[[-111.8053,33.4346],[-111.798,33.4298],[-111.788,33.4299],[-111.7879,33.4372],[-111.8053,33.437],[-111.8053,33.4346]]]}},{"type":"Feature","properties":{"pop":2068,"dens":8964.406040093932,"hu":718},"geometry":{"type":"Polygon","coordinates":[[[-111.814,33.4304],[-111.814,33.4297],[-111.8131,33.4296],[-111.8053,33.4297],[-111.8053,33.4345],[-111.8098,33.4367],[-111.814,33.4368],[-111.814,33.4304]]]}},{"type":"Feature","properties":{"pop":1683,"dens":7108.942678896368,"hu":535},"geometry":{"type":"Polygon","coordinates":[[[-111.8227,33.4303],[-111.814,33.4297],[-111.814,33.4368],[-111.8226,33.4368],[-111.8227,33.4303]]]}},{"type":"Feature","properties":{"pop":1836,"dens":7296.0235452250445,"hu":639},"geometry":{"type":"Polygon","coordinates":[[[-111.8141,33.4233],[-111.8141,33.4224],[-111.8053,33.4224],[-111.8053,33.4297],[-111.814,33.4297],[-111.8141,33.4233]]]}},{"type":"Feature","properties":{"pop":1957,"dens":7370.969725859721,"hu":665},"geometry":{"type":"Polygon","coordinates":[[[-111.8229,33.4226],[-111.8141,33.4224],[-111.814,33.4297],[-111.8227,33.43],[-111.8229,33.4226]]]}},{"type":"Feature","properties":{"pop":2212,"dens":8958.818069914121,"hu":1234},"geometry":{"type":"Polygon","coordinates":[[[-111.8357,33.4229],[-111.8357,33.4223],[-111.8314,33.4223],[-111.8312,33.4368],[-111.8355,33.4368],[-111.8357,33.4229]]]}},{"type":"Feature","properties":{"pop":1799,"dens":7306.122157501109,"hu":723},"geometry":{"type":"Polygon","coordinates":[[[-111.84,33.426],[-111.8399,33.4224],[-111.8357,33.4223],[-111.8355,33.4368],[-111.8399,33.4368],[-111.84,33.426]]]}},{"type":"Feature","properties":{"pop":1074,"dens":4285.542934810827,"hu":438},"geometry":{"type":"Polygon","coordinates":[[[-111.8314,33.4232],[-111.8314,33.4223],[-111.8229,33.4224],[-111.8227,33.43],[-111.8313,33.4296],[-111.8314,33.4232]]]}},{"type":"Feature","properties":{"pop":1926,"dens":7897.48435206533,"hu":1214},"geometry":{"type":"Polygon","coordinates":[[[-111.8313,33.4304],[-111.8313,33.4296],[-111.8227,33.43],[-111.8226,33.4368],[-111.8312,33.4368],[-111.8313,33.4304]]]}},{"type":"Feature","properties":{"pop":1397,"dens":4783.413667528256,"hu":461},"geometry":{"type":"Polygon","coordinates":[[[-111.8482,33.4523],[-111.8433,33.4509],[-111.8439,33.4441],[-111.8398,33.4442],[-111.8396,33.4572],[-111.8413,33.46],[-111.8482,33.4523]]]}},{"type":"Feature","properties":{"pop":1162,"dens":2869.313715217295,"hu":704},"geometry":{"type":"Polygon","coordinates":[[[-111.8563,33.444],[-111.8562,33.4354],[-111.8544,33.4366],[-111.8531,33.4385],[-111.8489,33.4404],[-111.8475,33.4399],[-111.8475,33.4389],[-111.8456,33.4368],[-111.8399,33.4368],[-111.8398,33.4442],[-111.8563,33.444]]]}},{"type":"Feature","properties":{"pop":1830,"dens":4876.608885513048,"hu":653},"geometry":{"type":"Polygon","coordinates":[[[-111.8567,33.4482],[-111.8563,33.444],[-111.8439,33.4441],[-111.8433,33.4508],[-111.8482,33.4523],[-111.8502,33.4514],[-111.8564,33.4513],[-111.8563,33.4483],[-111.8567,33.4482]]]}},{"type":"Feature","properties":{"pop":1331,"dens":4851.491837189774,"hu":416},"geometry":{"type":"Polygon","coordinates":[[[-111.8562,33.4335],[-111.8562,33.433],[-111.8446,33.4332],[-111.8436,33.435],[-111.8399,33.4352],[-111.8399,33.4368],[-111.8456,33.4368],[-111.8475,33.4389],[-111.8475,33.4399],[-111.8493,33.4403],[-111.8536,33.4381],[-111.8544,33.4366],[-111.8562,33.4354],[-111.8562,33.4335]]]}},{"type":"Feature","properties":{"pop":1679,"dens":8061.273683411997,"hu":645},"geometry":{"type":"Polygon","coordinates":[[[-111.8482,33.4229],[-111.8482,33.4223],[-111.8399,33.4224],[-111.8399,33.4297],[-111.8461,33.4295],[-111.8461,33.4259],[-111.8482,33.4258],[-111.8482,33.4229]]]}},{"type":"Feature","properties":{"pop":1238,"dens":4677.618868207888,"hu":289},"geometry":{"type":"Polygon","coordinates":[[[-111.8564,33.4228],[-111.8564,33.4222],[-111.8482,33.4223],[-111.8482,33.4258],[-111.8461,33.4259],[-111.8461,33.4295],[-111.8563,33.4294],[-111.8564,33.4228]]]}},{"type":"Feature","properties":{"pop":1006,"dens":9779.989505427313,"hu":399},"geometry":{"type":"Polygon","coordinates":[[[-111.8447,33.4309],[-111.8447,33.4296],[-111.8399,33.4297],[-111.8399,33.4352],[-111.844,33.4348],[-111.8447,33.4309]]]}},{"type":"Feature","properties":{"pop":1837,"dens":10931.053970391295,"hu":651},"geometry":{"type":"Polygon","coordinates":[[[-111.8563,33.4311],[-111.8563,33.4294],[-111.8447,33.4296],[-111.8446,33.4332],[-111.8562,33.433],[-111.8563,33.4311]]]}},{"type":"Feature","properties":{"pop":1744,"dens":1140.095577591931,"hu":1120},"geometry":{"type":"Polygon","coordinates":[[[-111.8913,33.4259],[-111.8829,33.4257],[-111.8829,33.4263],[-111.8813,33.4265],[-111.8798,33.4277],[-111.8803,33.4294],[-111.8669,33.4294],[-111.863,33.4321],[-111.8581,33.434],[-111.8562,33.4354],[-111.8567,33.4482],[-111.8611,33.4477],[-111.8611,33.4466],[-111.8654,33.4441],[-111.8746,33.4368],[-111.8911,33.4368],[-111.8913,33.4259]]]}},{"type":"Feature","properties":{"pop":2653,"dens":13048.464637007408,"hu":1303},"geometry":{"type":"Polygon","coordinates":[[[-111.883,33.4223],[-111.8772,33.4221],[-111.8743,33.4244],[-111.8743,33.4294],[-111.8803,33.4294],[-111.8798,33.4277],[-111.8813,33.4265],[-111.8829,33.4263],[-111.883,33.4223]]]}},{"type":"Feature","properties":{"pop":699,"dens":8826.725066617386,"hu":281},"geometry":{"type":"Polygon","coordinates":[[[-111.8743,33.4245],[-111.8669,33.4294],[-111.8743,33.4294],[-111.8743,33.4245]]]}},{"type":"Feature","properties":{"pop":1483,"dens":5770.194604787899,"hu":704},"geometry":{"type":"Polygon","coordinates":[[[-111.8654,33.4224],[-111.8564,33.4222],[-111.8563,33.4294],[-111.8651,33.4294],[-111.8654,33.4224]]]}},{"type":"Feature","properties":{"pop":1765,"dens":8946.472126519744,"hu":578},"geometry":{"type":"Polygon","coordinates":[[[-111.8771,33.4223],[-111.8654,33.4222],[-111.8651,33.4294],[-111.8669,33.4294],[-111.8771,33.4223]]]}},{"type":"Feature","properties":{"pop":850,"dens":6441.758267320629,"hu":332},"geometry":{"type":"Polygon","coordinates":[[[-111.8668,33.4295],[-111.8563,33.4294],[-111.8562,33.4354],[-111.8581,33.434],[-111.863,33.4321],[-111.8668,33.4295]]]}},{"type":"Feature","properties":{"pop":3064,"dens":12736.412164213994,"hu":864},"geometry":{"type":"Polygon","coordinates":[[[-111.8483,33.4156],[-111.8483,33.415],[-111.8399,33.4151],[-111.8399,33.4224],[-111.8482,33.4223],[-111.8483,33.4156]]]}},{"type":"Feature","properties":{"pop":2460,"dens":10336.151958733757,"hu":1194},"geometry":{"type":"Polygon","coordinates":[[[-111.8566,33.4154],[-111.8566,33.4149],[-111.8483,33.415],[-111.8482,33.4223],[-111.8564,33.4222],[-111.8566,33.4154]]]}},{"type":"Feature","properties":{"pop":367,"dens":1522.5224089386725,"hu":262},"geometry":{"type":"Polygon","coordinates":[[[-111.8567,33.4081],[-111.8567,33.4076],[-111.8484,33.4077],[-111.8483,33.415],[-111.8566,33.4149],[-111.8567,33.4081]]]}},{"type":"Feature","properties":{"pop":393,"dens":1607.4591151802795,"hu":160},"geometry":{"type":"Polygon","coordinates":[[[-111.8483,33.4109],[-111.8484,33.4077],[-111.84,33.4079],[-111.8399,33.4151],[-111.8483,33.415],[-111.8483,33.4109]]]}},{"type":"Feature","properties":{"pop":1821,"dens":5831.069487413067,"hu":629},"geometry":{"type":"Polygon","coordinates":[[[-111.8847,33.4148],[-111.87,33.4149],[-111.8699,33.4221],[-111.8772,33.4221],[-111.8786,33.42],[-111.8847,33.4148]]]}},{"type":"Feature","properties":{"pop":1550,"dens":6349.992245828605,"hu":513},"geometry":{"type":"Polygon","coordinates":[[[-111.87,33.4156],[-111.87,33.4149],[-111.8566,33.4149],[-111.8565,33.4181],[-111.8654,33.4181],[-111.8653,33.4222],[-111.8699,33.4221],[-111.87,33.4156]]]}},{"type":"Feature","properties":{"pop":1989,"dens":13842.702682965555,"hu":806},"geometry":{"type":"Polygon","coordinates":[[[-111.8654,33.4183],[-111.8565,33.4181],[-111.8564,33.4222],[-111.8653,33.4222],[-111.8654,33.4183]]]}},{"type":"Feature","properties":{"pop":1081,"dens":21535.921051040797,"hu":587},"geometry":{"type":"Polygon","coordinates":[[[-111.8883,33.4111],[-111.8828,33.4112],[-111.883,33.4148],[-111.8847,33.4148],[-111.8883,33.4111]]]}},{"type":"Feature","properties":{"pop":1938,"dens":2286.635922896462,"hu":1013},"geometry":{"type":"Polygon","coordinates":[[[-111.8889,33.4093],[-111.8884,33.4075],[-111.8567,33.4076],[-111.8566,33.4149],[-111.883,33.4148],[-111.8828,33.4112],[-111.8883,33.4111],[-111.8889,33.4093]]]}},{"type":"Feature","properties":{"pop":431,"dens":1748.5601119956623,"hu":314},"geometry":{"type":"Polygon","coordinates":[[[-111.8315,33.4162],[-111.8315,33.4151],[-111.8229,33.4151],[-111.8229,33.4224],[-111.8314,33.4223],[-111.8315,33.4162]]]}},{"type":"Feature","properties":{"pop":386,"dens":1564.073904803947,"hu":219},"geometry":{"type":"Polygon","coordinates":[[[-111.8315,33.4087],[-111.8315,33.4078],[-111.823,33.4078],[-111.8229,33.4151],[-111.8315,33.4151],[-111.8315,33.4087]]]}},{"type":"Feature","properties":{"pop":678,"dens":2790.9599947906236,"hu":351},"geometry":{"type":"Polygon","coordinates":[[[-111.84,33.4082],[-111.8315,33.4078],[-111.8315,33.4151],[-111.8399,33.4151],[-111.84,33.4082]]]}},{"type":"Feature","properties":{"pop":985,"dens":4019.699792684385,"hu":647},"geometry":{"type":"Polygon","coordinates":[[[-111.84,33.4176],[-111.8399,33.4151],[-111.8315,33.4151],[-111.8314,33.4223],[-111.8399,33.4224],[-111.84,33.4176]]]}},{"type":"Feature","properties":{"pop":853,"dens":6605.409368242717,"hu":408},"geometry":{"type":"Polygon","coordinates":[[[-111.823,33.4089],[-111.823,33.4078],[-111.8186,33.4078],[-111.8185,33.4151],[-111.8229,33.4151],[-111.823,33.4089]]]}},{"type":"Feature","properties":{"pop":1076,"dens":5641.207903577852,"hu":375},"geometry":{"type":"Polygon","coordinates":[[[-111.8185,33.4116],[-111.8053,33.4115],[-111.8053,33.4152],[-111.8185,33.4151],[-111.8185,33.4116]]]}},{"type":"Feature","properties":{"pop":1718,"dens":8978.355195439099,"hu":603},"geometry":{"type":"Polygon","coordinates":[[[-111.8185,33.4096],[-111.8186,33.4078],[-111.8053,33.4079],[-111.8053,33.4115],[-111.8184,33.4114],[-111.8185,33.4096]]]}},{"type":"Feature","properties":{"pop":1749,"dens":6893.176610710109,"hu":626},"geometry":{"type":"Polygon","coordinates":[[[-111.8141,33.416],[-111.8141,33.4151],[-111.8053,33.4152],[-111.8053,33.4224],[-111.8141,33.4224],[-111.8141,33.416]]]}},{"type":"Feature","properties":{"pop":1514,"dens":5908.203045557168,"hu":548},"geometry":{"type":"Polygon","coordinates":[[[-111.8229,33.4172],[-111.8229,33.4151],[-111.8141,33.4151],[-111.8141,33.4224],[-111.8229,33.4224],[-111.8229,33.4172]]]}},{"type":"Feature","properties":{"pop":2563,"dens":10116.163507452347,"hu":759},"geometry":{"type":"Polygon","coordinates":[[[-111.7972,33.4205],[-111.7966,33.4192],[-111.7968,33.4153],[-111.7882,33.4154],[-111.7881,33.4227],[-111.7972,33.4225],[-111.7972,33.4205]]]}},{"type":"Feature","properties":{"pop":1445,"dens":6017.289228608864,"hu":413},"geometry":{"type":"Polygon","coordinates":[[[-111.8053,33.4174],[-111.8053,33.4152],[-111.7968,33.4153],[-111.7966,33.4192],[-111.7972,33.4198],[-111.7972,33.4225],[-111.8053,33.4224],[-111.8053,33.4174]]]}},{"type":"Feature","properties":{"pop":2295,"dens":11021.988491901726,"hu":670},"geometry":{"type":"Polygon","coordinates":[[[-111.8053,33.413],[-111.8053,33.4124],[-111.7997,33.4125],[-111.7997,33.408],[-111.795,33.408],[-111.7944,33.4153],[-111.8053,33.4152],[-111.8053,33.413]]]}},{"type":"Feature","properties":{"pop":792,"dens":4312.4771624837895,"hu":283},"geometry":{"type":"Polygon","coordinates":[[[-111.795,33.4094],[-111.795,33.408],[-111.7883,33.4081],[-111.7882,33.4154],[-111.7944,33.4153],[-111.795,33.4094]]]}},{"type":"Feature","properties":{"pop":1613,"dens":15925.994975841602,"hu":519},"geometry":{"type":"Polygon","coordinates":[[[-111.8053,33.4088],[-111.8053,33.4079],[-111.7997,33.408],[-111.7997,33.4125],[-111.8053,33.4124],[-111.8053,33.4088]]]}},{"type":"Feature","properties":{"pop":1867,"dens":11869.458829151334,"hu":988},"geometry":{"type":"Polygon","coordinates":[[[-111.7882,33.4159],[-111.7882,33.4154],[-111.7826,33.4154],[-111.783,33.4227],[-111.7881,33.4227],[-111.7882,33.4159]]]}},{"type":"Feature","properties":{"pop":2092,"dens":10279.705145706317,"hu":1100},"geometry":{"type":"Polygon","coordinates":[[[-111.783,33.42],[-111.7826,33.4154],[-111.7739,33.4154],[-111.7738,33.4172],[-111.7749,33.4172],[-111.7753,33.4194],[-111.7766,33.4194],[-111.7775,33.4227],[-111.783,33.4227],[-111.783,33.42]]]}},{"type":"Feature","properties":{"pop":592,"dens":4416.654100620874,"hu":269},"geometry":{"type":"Polygon","coordinates":[[[-111.7775,33.4227],[-111.7766,33.4194],[-111.7753,33.4194],[-111.7749,33.4172],[-111.7738,33.4172],[-111.7739,33.4154],[-111.7711,33.4155],[-111.771,33.4227],[-111.7775,33.4227]]]}},{"type":"Feature","properties":{"pop":810,"dens":5246.420045541648,"hu":545},"geometry":{"type":"Polygon","coordinates":[[[-111.7776,33.4154],[-111.7774,33.4122],[-111.7746,33.4097],[-111.7742,33.4082],[-111.7711,33.4082],[-111.7711,33.4155],[-111.7776,33.4154]]]}},{"type":"Feature","properties":{"pop":2307,"dens":10296.77575334949,"hu":683},"geometry":{"type":"Polygon","coordinates":[[[-111.7883,33.4088],[-111.7883,33.4081],[-111.7762,33.4081],[-111.7842,33.4154],[-111.7882,33.4154],[-111.7883,33.4088]]]}},{"type":"Feature","properties":{"pop":1174,"dens":9798.571290984406,"hu":575},"geometry":{"type":"Polygon","coordinates":[[[-111.7841,33.4154],[-111.7775,33.409],[-111.7762,33.4081],[-111.7742,33.4082],[-111.7746,33.4097],[-111.7774,33.4122],[-111.7776,33.4154],[-111.7841,33.4154]]]}},{"type":"Feature","properties":{"pop":1117,"dens":4505.936068817194,"hu":300},"geometry":{"type":"Polygon","coordinates":[[[-111.7969,33.394],[-111.7969,33.3935],[-111.7883,33.3936],[-111.7883,33.4008],[-111.7968,33.4007],[-111.7969,33.394]]]}},{"type":"Feature","properties":{"pop":1747,"dens":7074.245538526921,"hu":509},"geometry":{"type":"Polygon","coordinates":[[[-111.8055,33.3935],[-111.7969,33.3935],[-111.7968,33.4007],[-111.8054,33.4006],[-111.8055,33.3935]]]}},{"type":"Feature","properties":{"pop":1859,"dens":19631.00610877482,"hu":483},"geometry":{"type":"Polygon","coordinates":[[[-111.7947,33.4057],[-111.7947,33.4042],[-111.7883,33.4045],[-111.7883,33.4081],[-111.7947,33.408],[-111.7947,33.4057]]]}},{"type":"Feature","properties":{"pop":2426,"dens":9910.561051702156,"hu":717},"geometry":{"type":"Polygon","coordinates":[[[-111.8054,33.4025],[-111.8054,33.4006],[-111.7883,33.4008],[-111.7883,33.4045],[-111.8053,33.4043],[-111.8054,33.4025]]]}},{"type":"Feature","properties":{"pop":849,"dens":5455.477737029663,"hu":281},"geometry":{"type":"Polygon","coordinates":[[[-111.8053,33.4055],[-111.8053,33.4043],[-111.7947,33.4042],[-111.7947,33.408],[-111.8053,33.4079],[-111.8053,33.4055]]]}},{"type":"Feature","properties":{"pop":2159,"dens":8570.607287977557,"hu":690},"geometry":{"type":"Polygon","coordinates":[[[-111.8142,33.3942],[-111.8142,33.3934],[-111.8054,33.3934],[-111.8054,33.4006],[-111.8142,33.4006],[-111.8142,33.3942]]]}},{"type":"Feature","properties":{"pop":1822,"dens":7186.613167290537,"hu":596},"geometry":{"type":"Polygon","coordinates":[[[-111.8229,33.4006],[-111.8229,33.3933],[-111.8142,33.3934],[-111.8142,33.4006],[-111.8229,33.4006]]]}},{"type":"Feature","properties":{"pop":936,"dens":7318.755122561265,"hu":249},"geometry":{"type":"Polygon","coordinates":[[[-111.8141,33.4078],[-111.8141,33.4042],[-111.8053,33.4043],[-111.8053,33.4079],[-111.8141,33.4078]]]}},{"type":"Feature","properties":{"pop":2355,"dens":15678.239427732748,"hu":660},"geometry":{"type":"Polygon","coordinates":[[[-111.8229,33.402],[-111.8229,33.4006],[-111.8142,33.4006],[-111.8141,33.4078],[-111.8186,33.4078],[-111.8186,33.402],[-111.8229,33.402]]]}},{"type":"Feature","properties":{"pop":1459,"dens":11472.477499512166,"hu":372},"geometry":{"type":"Polygon","coordinates":[[[-111.8142,33.4028],[-111.8142,33.4006],[-111.8054,33.4006],[-111.8053,33.4043],[-111.8141,33.4042],[-111.8142,33.4028]]]}},{"type":"Feature","properties":{"pop":1788,"dens":17520.40496807805,"hu":631},"geometry":{"type":"Polygon","coordinates":[[[-111.823,33.4078],[-111.8229,33.402],[-111.8186,33.402],[-111.8186,33.4078],[-111.823,33.4078]]]}},{"type":"Feature","properties":{"pop":2457,"dens":10167.951668407904,"hu":735},"geometry":{"type":"Polygon","coordinates":[[[-111.8315,33.4059],[-111.8315,33.4005],[-111.8229,33.401],[-111.823,33.4078],[-111.8315,33.4078],[-111.8315,33.4059]]]}},{"type":"Feature","properties":{"pop":2201,"dens":8869.798853831484,"hu":679},"geometry":{"type":"Polygon","coordinates":[[[-111.8401,33.4015],[-111.8401,33.4006],[-111.8315,33.4005],[-111.8315,33.4078],[-111.84,33.4079],[-111.8401,33.4015]]]}},{"type":"Feature","properties":{"pop":1483,"dens":9303.020234908068,"hu":489},"geometry":{"type":"Polygon","coordinates":[[[-111.8401,33.3963],[-111.8401,33.3933],[-111.8317,33.3933],[-111.8315,33.4005],[-111.8342,33.4006],[-111.8342,33.397],[-111.8401,33.397],[-111.8401,33.3963]]]}},{"type":"Feature","properties":{"pop":1166,"dens":4572.089776818461,"hu":340},"geometry":{"type":"Polygon","coordinates":[[[-111.8317,33.3938],[-111.8317,33.3933],[-111.8229,33.3933],[-111.8229,33.401],[-111.8315,33.4005],[-111.8317,33.3938]]]}},{"type":"Feature","properties":{"pop":1255,"dens":14848.517021718826,"hu":668},"geometry":{"type":"Polygon","coordinates":[[[-111.8401,33.3986],[-111.8401,33.397],[-111.8342,33.397],[-111.8342,33.4006],[-111.8401,33.4006],[-111.8401,33.3986]]]}},{"type":"Feature","properties":{"pop":1227,"dens":8468.338527601427,"hu":492},"geometry":{"type":"Polygon","coordinates":[[[-111.8657,33.4037],[-111.8569,33.4035],[-111.8567,33.4076],[-111.8656,33.4076],[-111.8657,33.4037]]]}},{"type":"Feature","properties":{"pop":2126,"dens":10534.11051927947,"hu":532},"geometry":{"type":"Polygon","coordinates":[[[-111.8698,33.4015],[-111.8698,33.4008],[-111.857,33.4003],[-111.8569,33.4035],[-111.8657,33.4035],[-111.8656,33.4076],[-111.8682,33.4076],[-111.8682,33.4065],[-111.8697,33.4064],[-111.8698,33.4015]]]}},{"type":"Feature","properties":{"pop":1471,"dens":10148.43601715661,"hu":823},"geometry":{"type":"Polygon","coordinates":[[[-111.8746,33.402],[-111.8746,33.4003],[-111.8698,33.4008],[-111.8697,33.4064],[-111.8682,33.4065],[-111.8682,33.4076],[-111.8745,33.4076],[-111.8746,33.402]]]}},{"type":"Feature","properties":{"pop":1914,"dens":17820.33080793291,"hu":1186},"geometry":{"type":"Polygon","coordinates":[[[-111.8703,33.395],[-111.8702,33.3931],[-111.8637,33.3931],[-111.864,33.3946],[-111.8657,33.3962],[-111.8658,33.3985],[-111.8698,33.3985],[-111.8703,33.395]]]}},{"type":"Feature","properties":{"pop":1427,"dens":18155.33447870189,"hu":721},"geometry":{"type":"Polygon","coordinates":[[[-111.8746,33.3985],[-111.8681,33.3981],[-111.8658,33.3985],[-111.8658,33.4008],[-111.8746,33.4003],[-111.8746,33.3985]]]}},{"type":"Feature","properties":{"pop":1186,"dens":12562.97730501463,"hu":708},"geometry":{"type":"Polygon","coordinates":[[[-111.8746,33.3934],[-111.8702,33.3931],[-111.8698,33.3985],[-111.8746,33.3983],[-111.8746,33.3934]]]}},{"type":"Feature","properties":{"pop":655,"dens":14874.981407511503,"hu":454},"geometry":{"type":"Polygon","coordinates":[[[-111.8799,33.4067],[-111.8801,33.4058],[-111.8787,33.4058],[-111.8787,33.4049],[-111.8778,33.4049],[-111.8774,33.4059],[-111.8768,33.4059],[-111.8766,33.4049],[-111.8746,33.405],[-111.8745,33.4076],[-111.8781,33.4076],[-111.8781,33.407],[-111.8799,33.4067]]]}},{"type":"Feature","properties":{"pop":1810,"dens":20405.628627555336,"hu":736},"geometry":{"type":"Polygon","coordinates":[[[-111.8782,33.3958],[-111.8782,33.393],[-111.8746,33.3931],[-111.8746,33.4003],[-111.8774,33.4003],[-111.8773,33.396],[-111.8782,33.3958]]]}},{"type":"Feature","properties":{"pop":1010,"dens":7032.899947444176,"hu":454},"geometry":{"type":"Polygon","coordinates":[[[-111.8849,33.4],[-111.8801,33.393],[-111.8782,33.393],[-111.8782,33.3959],[-111.8773,33.396],[-111.8774,33.4003],[-111.8849,33.4]]]}},{"type":"Feature","properties":{"pop":910,"dens":5248.502036773758,"hu":305},"geometry":{"type":"Polygon","coordinates":[[[-111.8882,33.4075],[-111.885,33.4],[-111.8809,33.4003],[-111.8809,33.4019],[-111.8802,33.4019],[-111.8805,33.4036],[-111.8811,33.4039],[-111.8811,33.4076],[-111.8882,33.4075]]]}},{"type":"Feature","properties":{"pop":2217,"dens":16041.48990775014,"hu":841},"geometry":{"type":"Polygon","coordinates":[[[-111.8811,33.4044],[-111.8802,33.4019],[-111.8809,33.4019],[-111.8809,33.4003],[-111.8746,33.4003],[-111.8746,33.405],[-111.8766,33.4049],[-111.8768,33.4059],[-111.8774,33.4059],[-111.8778,33.4049],[-111.8787,33.4049],[-111.8787,33.4058],[-111.8801,33.4058],[-111.8799,33.4067],[-111.8781,33.407],[-111.8781,33.4076],[-111.8811,33.4076],[-111.8811,33.4044]]]}},{"type":"Feature","properties":{"pop":2034,"dens":8263.65966643276,"hu":664},"geometry":{"type":"Polygon","coordinates":[[[-111.8487,33.3934],[-111.8401,33.3933],[-111.8401,33.4006],[-111.8485,33.4005],[-111.8487,33.3934]]]}},{"type":"Feature","properties":{"pop":1761,"dens":7137.93396886136,"hu":739},"geometry":{"type":"Polygon","coordinates":[[[-111.8572,33.3935],[-111.8487,33.3932],[-111.8485,33.4005],[-111.857,33.4003],[-111.8572,33.3935]]]}},{"type":"Feature","properties":{"pop":2927,"dens":12021.66056387583,"hu":1332},"geometry":{"type":"Polygon","coordinates":[[[-111.8569,33.402],[-111.857,33.4003],[-111.8485,33.4005],[-111.8484,33.4077],[-111.8567,33.4076],[-111.8569,33.402]]]}},{"type":"Feature","properties":{"pop":2116,"dens":17245.22926142843,"hu":729},"geometry":{"type":"Polygon","coordinates":[[[-111.8443,33.4051],[-111.8443,33.4005],[-111.8401,33.4006],[-111.84,33.4079],[-111.8443,33.4078],[-111.8443,33.4051]]]}},{"type":"Feature","properties":{"pop":1804,"dens":15052.02780169559,"hu":485},"geometry":{"type":"Polygon","coordinates":[[[-111.8485,33.4012],[-111.8485,33.4005],[-111.8443,33.4005],[-111.8443,33.4078],[-111.8484,33.4077],[-111.8485,33.4012]]]}},{"type":"Feature","properties":{"pop":2833,"dens":20464.614085407033,"hu":1360},"geometry":{"type":"Polygon","coordinates":[[[-111.8658,33.3968],[-111.8571,33.3967],[-111.857,33.4003],[-111.8658,33.4008],[-111.8658,33.3968]]]}},{"type":"Feature","properties":{"pop":1253,"dens":11735.185252127267,"hu":658},"geometry":{"type":"Polygon","coordinates":[[[-111.8658,33.3967],[-111.8639,33.3945],[-111.8637,33.3931],[-111.8572,33.3931],[-111.8571,33.3967],[-111.8658,33.3967]]]}},{"type":"Feature","properties":{"pop":3247,"dens":6572.16438191991,"hu":1680},"geometry":{"type":"Polygon","coordinates":[[[-111.8487,33.38],[-111.8488,33.3788],[-111.8411,33.3788],[-111.8407,33.3793],[-111.8401,33.3812],[-111.8401,33.3933],[-111.8487,33.3932],[-111.8487,33.38]]]}},{"type":"Feature","properties":{"pop":693,"dens":2041.351725733602,"hu":369},"geometry":{"type":"Polygon","coordinates":[[[-111.8576,33.3837],[-111.8567,33.3829],[-111.8557,33.3834],[-111.8529,33.3831],[-111.8519,33.3837],[-111.8487,33.3832],[-111.8487,33.3932],[-111.8572,33.3931],[-111.8576,33.3837]]]}},{"type":"Feature","properties":{"pop":1109,"dens":5888.248770819772,"hu":451},"geometry":{"type":"Polygon","coordinates":[[[-111.8598,33.3794],[-111.8598,33.3787],[-111.8488,33.3788],[-111.8487,33.3832],[-111.8519,33.3837],[-111.8529,33.3831],[-111.8557,33.3834],[-111.8567,33.3829],[-111.8578,33.3834],[-111.8598,33.3794]]]}},{"type":"Feature","properties":{"pop":1847,"dens":4250.116096743636,"hu":927},"geometry":{"type":"Polygon","coordinates":[[[-111.869,33.3818],[-111.8688,33.3786],[-111.8598,33.3787],[-111.8594,33.3809],[-111.8575,33.3843],[-111.8572,33.3931],[-111.8637,33.3931],[-111.864,33.3847],[-111.8651,33.3836],[-111.8679,33.3832],[-111.869,33.3818]]]}},{"type":"Feature","properties":{"pop":1092,"dens":1928.838964809091,"hu":521},"geometry":{"type":"Polygon","coordinates":[[[-111.8777,33.379],[-111.8777,33.3786],[-111.8688,33.3786],[-111.8686,33.3827],[-111.8674,33.3834],[-111.8649,33.3837],[-111.864,33.3847],[-111.8637,33.3931],[-111.8746,33.3931],[-111.8747,33.3845],[-111.8777,33.379]]]}},{"type":"Feature","properties":{"pop":1422,"dens":2653.6164677765646,"hu":622},"geometry":{"type":"Polygon","coordinates":[[[-111.8932,33.3789],[-111.8932,33.3785],[-111.8777,33.3786],[-111.8747,33.3845],[-111.8746,33.3931],[-111.8801,33.393],[-111.8798,33.388],[-111.8803,33.386],[-111.8871,33.384],[-111.8923,33.3813],[-111.8932,33.3789]]]}},{"type":"Feature","properties":{"pop":1662,"dens":6957.250128877789,"hu":773},"geometry":{"type":"Polygon","coordinates":[[[-111.8909,33.3765],[-111.8904,33.3752],[-111.8877,33.373],[-111.886,33.3734],[-111.8851,33.3744],[-111.882,33.3721],[-111.8803,33.3719],[-111.88,33.374],[-111.8777,33.3786],[-111.8905,33.3785],[-111.8909,33.3765]]]}},{"type":"Feature","properties":{"pop":1805,"dens":4159.786726671098,"hu":704},"geometry":{"type":"Polygon","coordinates":[[[-111.8919,33.3725],[-111.8913,33.3677],[-111.8895,33.3664],[-111.8855,33.3659],[-111.8855,33.3639],[-111.8766,33.3641],[-111.877,33.3665],[-111.8803,33.3719],[-111.882,33.3721],[-111.8851,33.3744],[-111.886,33.3734],[-111.8877,33.373],[-111.8901,33.3749],[-111.8919,33.3725]]]}},{"type":"Feature","properties":{"pop":911,"dens":4546.892457420562,"hu":320},"geometry":{"type":"Polygon","coordinates":[[[-111.8941,33.3639],[-111.8855,33.3639],[-111.8855,33.3659],[-111.8899,33.3666],[-111.8917,33.3683],[-111.8918,33.3728],[-111.8901,33.3749],[-111.8909,33.3761],[-111.8905,33.3785],[-111.8932,33.3785],[-111.8941,33.3639]]]}},{"type":"Feature","properties":{"pop":1201,"dens":5671.322962866201,"hu":443},"geometry":{"type":"Polygon","coordinates":[[[-111.8849,33.364],[-111.8847,33.3576],[-111.8765,33.3576],[-111.8766,33.3641],[-111.8849,33.364]]]}},{"type":"Feature","properties":{"pop":1537,"dens":5246.886661396702,"hu":535},"geometry":{"type":"Polygon","coordinates":[[[-111.8945,33.3572],[-111.8945,33.3567],[-111.8765,33.3569],[-111.8765,33.3576],[-111.8847,33.3576],[-111.8849,33.364],[-111.8941,33.3638],[-111.8945,33.3572]]]}},{"type":"Feature","properties":{"pop":1996,"dens":3988.094916561454,"hu":821},"geometry":{"type":"Polygon","coordinates":[[[-111.8766,33.3632],[-111.8765,33.3569],[-111.8591,33.357],[-111.8591,33.3642],[-111.8766,33.3641],[-111.8766,33.3632]]]}},{"type":"Feature","properties":{"pop":872,"dens":5147.22908565283,"hu":290},"geometry":{"type":"Polygon","coordinates":[[[-111.8515,33.3644],[-111.8418,33.3642],[-111.842,33.3687],[-111.8487,33.3695],[-111.8487,33.3675],[-111.8514,33.3682],[-111.8515,33.3644]]]}},{"type":"Feature","properties":{"pop":1406,"dens":6226.2229619268965,"hu":445},"geometry":{"type":"Polygon","coordinates":[[[-111.8594,33.3715],[-111.8591,33.3642],[-111.8515,33.3642],[-111.8513,33.3715],[-111.8594,33.3715]]]}},{"type":"Feature","properties":{"pop":2371,"dens":8896.013312362691,"hu":810},"geometry":{"type":"Polygon","coordinates":[[[-111.8598,33.3787],[-111.8594,33.3715],[-111.8513,33.3715],[-111.8513,33.3742],[-111.8491,33.377],[-111.8488,33.3788],[-111.8598,33.3787]]]}},{"type":"Feature","properties":{"pop":1291,"dens":3756.0949866856663,"hu":534},"geometry":{"type":"Polygon","coordinates":[[[-111.8515,33.3731],[-111.8514,33.3682],[-111.8487,33.3675],[-111.8487,33.3695],[-111.842,33.3687],[-111.8423,33.3762],[-111.8411,33.3788],[-111.8488,33.3788],[-111.849,33.3772],[-111.851,33.3749],[-111.8515,33.3731]]]}},{"type":"Feature","properties":{"pop":2241,"dens":7996.506076394383,"hu":1062},"geometry":{"type":"Polygon","coordinates":[[[-111.8515,33.3586],[-111.8515,33.357],[-111.8418,33.357],[-111.8418,33.3642],[-111.8515,33.3642],[-111.8515,33.3586]]]}},{"type":"Feature","properties":{"pop":1348,"dens":6193.316702762394,"hu":572},"geometry":{"type":"Polygon","coordinates":[[[-111.8591,33.3571],[-111.8515,33.357],[-111.8515,33.3642],[-111.8591,33.3642],[-111.8591,33.3571]]]}},{"type":"Feature","properties":{"pop":1399,"dens":3489.631500330669,"hu":934},"geometry":{"type":"Polygon","coordinates":[[[-111.8803,33.3726],[-111.8798,33.3705],[-111.8776,33.3674],[-111.8751,33.3675],[-111.8748,33.3687],[-111.8721,33.3688],[-111.8705,33.3702],[-111.8684,33.3677],[-111.8663,33.3668],[-111.865,33.3681],[-111.8649,33.3686],[-111.8672,33.3698],[-111.8664,33.3704],[-111.8646,33.374],[-111.8658,33.3748],[-111.8686,33.3755],[-111.8715,33.3749],[-111.8718,33.3757],[-111.8726,33.3756],[-111.8727,33.3747],[-111.8735,33.3755],[-111.8759,33.3753],[-111.8785,33.3764],[-111.8803,33.3726]]]}},{"type":"Feature","properties":{"pop":980,"dens":6085.267619562371,"hu":369},"geometry":{"type":"Polygon","coordinates":[[[-111.8776,33.3674],[-111.8766,33.3641],[-111.8678,33.3642],[-111.8676,33.3674],[-111.8704,33.3702],[-111.8721,33.3688],[-111.8748,33.3687],[-111.8751,33.3675],[-111.8776,33.3674]]]}},{"type":"Feature","properties":{"pop":1493,"dens":8683.195120447208,"hu":754},"geometry":{"type":"Polygon","coordinates":[[[-111.8784,33.3765],[-111.8761,33.3754],[-111.8735,33.3755],[-111.8727,33.3747],[-111.8726,33.3756],[-111.8718,33.3757],[-111.8715,33.3749],[-111.8686,33.3755],[-111.8662,33.3749],[-111.864,33.3787],[-111.8777,33.3786],[-111.8784,33.3765]]]}},{"type":"Feature","properties":{"pop":1233,"dens":7316.797542575375,"hu":508},"geometry":{"type":"Polygon","coordinates":[[[-111.8662,33.375],[-111.8646,33.374],[-111.8662,33.3712],[-111.8594,33.3715],[-111.8598,33.3787],[-111.864,33.3787],[-111.8662,33.375]]]}},{"type":"Feature","properties":{"pop":1028,"dens":4916.829474208783,"hu":367},"geometry":{"type":"Polygon","coordinates":[[[-111.8679,33.3665],[-111.8678,33.3642],[-111.8591,33.3642],[-111.8594,33.3715],[-111.8662,33.3712],[-111.8672,33.3698],[-111.8649,33.3686],[-111.865,33.3681],[-111.8662,33.3668],[-111.8676,33.3674],[-111.8679,33.3665]]]}},{"type":"Feature","properties":{"pop":1597,"dens":3312.2052304741514,"hu":584},"geometry":{"type":"Polygon","coordinates":[[[-111.8142,33.3799],[-111.8143,33.3789],[-111.8073,33.3789],[-111.8056,33.3834],[-111.8054,33.3934],[-111.8142,33.3934],[-111.8142,33.3799]]]}},{"type":"Feature","properties":{"pop":2381,"dens":4740.403310256828,"hu":652},"geometry":{"type":"Polygon","coordinates":[[[-111.8231,33.3828],[-111.8229,33.3789],[-111.8143,33.3789],[-111.8142,33.3934],[-111.8229,33.3933],[-111.8231,33.3828]]]}},{"type":"Feature","properties":{"pop":1822,"dens":1831.409266030137,"hu":576},"geometry":{"type":"Polygon","coordinates":[[[-111.8407,33.3793],[-111.8411,33.3788],[-111.8229,33.3789],[-111.8229,33.3933],[-111.8401,33.3933],[-111.8401,33.3812],[-111.8407,33.3793]]]}},{"type":"Feature","properties":{"pop":1199,"dens":2334.166894316287,"hu":365},"geometry":{"type":"Polygon","coordinates":[[[-111.8073,33.3792],[-111.797,33.379],[-111.7969,33.3935],[-111.8054,33.3934],[-111.8056,33.3834],[-111.8073,33.3792]]]}},{"type":"Feature","properties":{"pop":1296,"dens":5109.010589386736,"hu":356},"geometry":{"type":"Polygon","coordinates":[[[-111.7969,33.3861],[-111.7883,33.3861],[-111.7883,33.3936],[-111.7969,33.3935],[-111.7969,33.3861]]]}},{"type":"Feature","properties":{"pop":1648,"dens":12598.925367843109,"hu":934},"geometry":{"type":"Polygon","coordinates":[[[-111.7969,33.3847],[-111.797,33.3825],[-111.7946,33.3825],[-111.7946,33.3818],[-111.7939,33.3817],[-111.7939,33.3803],[-111.7932,33.3803],[-111.7931,33.3817],[-111.7923,33.3818],[-111.7922,33.3826],[-111.7894,33.3826],[-111.7894,33.3834],[-111.7883,33.3834],[-111.7883,33.3861],[-111.7969,33.3861],[-111.7969,33.3847]]]}},{"type":"Feature","properties":{"pop":910,"dens":8012.918292617617,"hu":317},"geometry":{"type":"Polygon","coordinates":[[[-111.797,33.3803],[-111.797,33.379],[-111.7884,33.379],[-111.7883,33.3834],[-111.7894,33.3834],[-111.7894,33.3826],[-111.7922,33.3826],[-111.7923,33.3818],[-111.7931,33.3817],[-111.7932,33.3803],[-111.7939,33.3803],[-111.7939,33.3817],[-111.7946,33.3818],[-111.7946,33.3825],[-111.797,33.3825],[-111.797,33.3803]]]}},{"type":"Feature","properties":{"pop":1490,"dens":5912.786059211455,"hu":475},"geometry":{"type":"Polygon","coordinates":[[[-111.7625,33.4016],[-111.7625,33.4009],[-111.7538,33.401],[-111.7538,33.4082],[-111.7625,33.4082],[-111.7625,33.4016]]]}},{"type":"Feature","properties":{"pop":1709,"dens":7137.28511847476,"hu":614},"geometry":{"type":"Polygon","coordinates":[[[-111.7711,33.4047],[-111.7712,33.4022],[-111.7659,33.4008],[-111.7625,33.4009],[-111.7625,33.4082],[-111.7711,33.4082],[-111.7711,33.4047]]]}},{"type":"Feature","properties":{"pop":760,"dens":2946.4604946458626,"hu":302},"geometry":{"type":"Polygon","coordinates":[[[-111.7712,33.3977],[-111.7712,33.3936],[-111.7632,33.3937],[-111.7624,33.397],[-111.7625,33.4009],[-111.7659,33.4008],[-111.7712,33.4022],[-111.7712,33.3977]]]}},{"type":"Feature","properties":{"pop":2191,"dens":8545.271040209125,"hu":692},"geometry":{"type":"Polygon","coordinates":[[[-111.7632,33.3944],[-111.7632,33.3937],[-111.7538,33.3937],[-111.7538,33.401],[-111.7625,33.4009],[-111.7624,33.397],[-111.7632,33.3944]]]}},{"type":"Feature","properties":{"pop":1899,"dens":7546.239364224609,"hu":584},"geometry":{"type":"Polygon","coordinates":[[[-111.7798,33.4033],[-111.7798,33.4019],[-111.7763,33.4018],[-111.7763,33.4009],[-111.7743,33.4008],[-111.7712,33.3993],[-111.7711,33.4082],[-111.7798,33.4081],[-111.7798,33.4033]]]}},{"type":"Feature","properties":{"pop":596,"dens":2388.544937439528,"hu":179},"geometry":{"type":"Polygon","coordinates":[[[-111.7798,33.4019],[-111.7798,33.3936],[-111.7712,33.3936],[-111.7712,33.3993],[-111.7743,33.4008],[-111.7763,33.4009],[-111.7763,33.4018],[-111.7798,33.4019]]]}},{"type":"Feature","properties":{"pop":2437,"dens":14006.818508916038,"hu":802},"geometry":{"type":"Polygon","coordinates":[[[-111.7883,33.4053],[-111.7883,33.4048],[-111.7867,33.4048],[-111.7839,33.4024],[-111.7798,33.4019],[-111.7798,33.4081],[-111.7883,33.4081],[-111.7883,33.4053]]]}},{"type":"Feature","properties":{"pop":1241,"dens":3912.202286379926,"hu":537},"geometry":{"type":"Polygon","coordinates":[[[-111.7883,33.4024],[-111.7883,33.3936],[-111.7798,33.3936],[-111.7798,33.4019],[-111.7839,33.4024],[-111.7867,33.4048],[-111.7883,33.4048],[-111.7883,33.4024]]]}},{"type":"Feature","properties":{"pop":1828,"dens":7218.859437456402,"hu":512},"geometry":{"type":"Polygon","coordinates":[[[-111.7799,33.3862],[-111.7712,33.3862],[-111.7712,33.3936],[-111.7798,33.3936],[-111.7799,33.3862]]]}},{"type":"Feature","properties":{"pop":1984,"dens":7888.489305471675,"hu":798},"geometry":{"type":"Polygon","coordinates":[[[-111.7883,33.3862],[-111.7799,33.3862],[-111.7798,33.3936],[-111.7883,33.3936],[-111.7883,33.3862]]]}},{"type":"Feature","properties":{"pop":1933,"dens":6852.433992381779,"hu":713},"geometry":{"type":"Polygon","coordinates":[[[-111.7826,33.3803],[-111.7826,33.379],[-111.7712,33.3791],[-111.7712,33.3862],[-111.7799,33.3862],[-111.7801,33.3836],[-111.7826,33.3803]]]}},{"type":"Feature","properties":{"pop":1422,"dens":6940.55221283747,"hu":454},"geometry":{"type":"Polygon","coordinates":[[[-111.7884,33.3794],[-111.7826,33.379],[-111.7824,33.381],[-111.78,33.3837],[-111.7799,33.3862],[-111.7883,33.3861],[-111.7884,33.3794]]]}},{"type":"Feature","properties":{"pop":1554,"dens":3141.6761507515575,"hu":586},"geometry":{"type":"Polygon","coordinates":[[[-111.7712,33.3797],[-111.7712,33.3791],[-111.7696,33.379],[-111.754,33.3792],[-111.7539,33.3863],[-111.7712,33.3862],[-111.7712,33.3797]]]}},{"type":"Feature","properties":{"pop":1447,"dens":5281.759858532935,"hu":530},"geometry":{"type":"Polygon","coordinates":[[[-111.7712,33.3865],[-111.7626,33.3863],[-111.7625,33.3886],[-111.7614,33.3905],[-111.7614,33.3937],[-111.7712,33.3936],[-111.7712,33.3865]]]}},{"type":"Feature","properties":{"pop":2097,"dens":8828.02215895751,"hu":863},"geometry":{"type":"Polygon","coordinates":[[[-111.7626,33.3871],[-111.7626,33.3863],[-111.7539,33.3863],[-111.7538,33.3937],[-111.7614,33.3937],[-111.7614,33.3905],[-111.7625,33.3887],[-111.7626,33.3871]]]}},{"type":"Feature","properties":{"pop":685,"dens":1955.3044080688555,"hu":567},"geometry":{"type":"Polygon","coordinates":[[[-111.7466,33.4083],[-111.7416,33.4005],[-111.74,33.3938],[-111.7365,33.3938],[-111.7364,33.4083],[-111.7466,33.4083]]]}},{"type":"Feature","properties":{"pop":2366,"dens":8579.550976587681,"hu":657},"geometry":{"type":"Polygon","coordinates":[[[-111.7538,33.4028],[-111.7538,33.401],[-111.7417,33.4006],[-111.7467,33.4083],[-111.7538,33.4082],[-111.7538,33.4028]]]}},{"type":"Feature","properties":{"pop":1297,"dens":3452.875976396664,"hu":515},"geometry":{"type":"Polygon","coordinates":[[[-111.7538,33.3939],[-111.74,33.3938],[-111.7417,33.4006],[-111.7538,33.401],[-111.7538,33.3939]]]}},{"type":"Feature","properties":{"pop":3093,"dens":5289.620887124622,"hu":967},"geometry":{"type":"Polygon","coordinates":[[[-111.7484,33.3792],[-111.7397,33.3792],[-111.7393,33.3818],[-111.7367,33.3857],[-111.7365,33.3938],[-111.7477,33.3937],[-111.7473,33.3836],[-111.7484,33.3792]]]}},{"type":"Feature","properties":{"pop":2183,"dens":5952.693383558286,"hu":876},"geometry":{"type":"Polygon","coordinates":[[[-111.754,33.3793],[-111.7484,33.3792],[-111.7473,33.3836],[-111.7477,33.3937],[-111.7538,33.3937],[-111.754,33.3793]]]}},{"type":"Feature","properties":{"pop":1838,"dens":4263.938927107191,"hu":1226},"geometry":{"type":"Polygon","coordinates":[[[-111.7275,33.3943],[-111.7274,33.3938],[-111.7193,33.3939],[-111.7192,33.4084],[-111.7246,33.4084],[-111.7246,33.4072],[-111.7267,33.4072],[-111.7268,33.3961],[-111.7275,33.396],[-111.7275,33.3943]]]}},{"type":"Feature","properties":{"pop":1765,"dens":6086.330158115371,"hu":1111},"geometry":{"type":"Polygon","coordinates":[[[-111.7365,33.3942],[-111.7275,33.3938],[-111.7275,33.396],[-111.7268,33.3961],[-111.7267,33.4014],[-111.7358,33.4014],[-111.7359,33.4022],[-111.7365,33.4022],[-111.7365,33.3942]]]}},{"type":"Feature","properties":{"pop":791,"dens":2853.9573569805907,"hu":792},"geometry":{"type":"Polygon","coordinates":[[[-111.7365,33.4035],[-111.7358,33.4014],[-111.7267,33.4014],[-111.7267,33.4072],[-111.7246,33.4072],[-111.7246,33.4084],[-111.7364,33.4083],[-111.7365,33.4035]]]}},{"type":"Feature","properties":{"pop":2858,"dens":5661.565618383227,"hu":1177},"geometry":{"type":"Polygon","coordinates":[[[-111.6769,33.3988],[-111.6762,33.3974],[-111.6762,33.3933],[-111.6675,33.3934],[-111.6675,33.4079],[-111.6759,33.4079],[-111.6761,33.4005],[-111.6769,33.3988]]]}},{"type":"Feature","properties":{"pop":1650,"dens":3367.96961244936,"hu":744},"geometry":{"type":"Polygon","coordinates":[[[-111.6847,33.3946],[-111.6847,33.394],[-111.682,33.3934],[-111.6762,33.3933],[-111.6762,33.3974],[-111.6769,33.3988],[-111.6761,33.4005],[-111.6759,33.4079],[-111.6817,33.4079],[-111.6846,33.4086],[-111.6847,33.3946]]]}},{"type":"Feature","properties":{"pop":1171,"dens":2596.663821280563,"hu":849},"geometry":{"type":"Polygon","coordinates":[[[-111.6591,33.4051],[-111.657,33.4037],[-111.6562,33.4014],[-111.6586,33.3978],[-111.6588,33.3934],[-111.6501,33.3934],[-111.6501,33.4079],[-111.6588,33.4079],[-111.6591,33.4051]]]}},{"type":"Feature","properties":{"pop":1691,"dens":3036.9578929983636,"hu":1732},"geometry":{"type":"Polygon","coordinates":[[[-111.6675,33.3959],[-111.6675,33.3934],[-111.6588,33.3934],[-111.6586,33.3978],[-111.6562,33.4014],[-111.657,33.4037],[-111.6591,33.4051],[-111.6588,33.4079],[-111.6675,33.4079],[-111.6675,33.3959]]]}},{"type":"Feature","properties":{"pop":2572,"dens":2590.9673363721063,"hu":981},"geometry":{"type":"Polygon","coordinates":[[[-111.6189,33.3791],[-111.6017,33.3789],[-111.6013,33.3808],[-111.5981,33.3841],[-111.598,33.3933],[-111.6154,33.3933],[-111.6155,33.3842],[-111.6185,33.3813],[-111.6189,33.3791]]]}},{"type":"Feature","properties":{"pop":2045,"dens":3871.3354122587352,"hu":785},"geometry":{"type":"Polygon","coordinates":[[[-111.6154,33.3939],[-111.6153,33.3933],[-111.6067,33.3933],[-111.6067,33.3973],[-111.6082,33.3996],[-111.6068,33.401],[-111.6041,33.4059],[-111.6063,33.4078],[-111.6154,33.4078],[-111.6154,33.3939]]]}},{"type":"Feature","properties":{"pop":2521,"dens":5314.086378161793,"hu":938},"geometry":{"type":"Polygon","coordinates":[[[-111.6082,33.3996],[-111.6067,33.3973],[-111.6067,33.3933],[-111.598,33.3933],[-111.598,33.4078],[-111.6063,33.4078],[-111.6041,33.4059],[-111.6068,33.401],[-111.6082,33.3996]]]}},{"type":"Feature","properties":{"pop":1861,"dens":3716.084896338138,"hu":1691},"geometry":{"type":"Polygon","coordinates":[[[-111.5914,33.3968],[-111.5869,33.3932],[-111.5807,33.3933],[-111.5807,33.4078],[-111.5893,33.4078],[-111.5893,33.3969],[-111.5914,33.3968]]]}},{"type":"Feature","properties":{"pop":1407,"dens":5164.10086703401,"hu":479},"geometry":{"type":"Polygon","coordinates":[[[-111.6877,33.3684],[-111.6877,33.365],[-111.6707,33.3649],[-111.6709,33.3698],[-111.6731,33.3697],[-111.676,33.3686],[-111.6782,33.3697],[-111.6827,33.3684],[-111.6877,33.3684]]]}},{"type":"Feature","properties":{"pop":1695,"dens":4736.851525989965,"hu":607},"geometry":{"type":"Polygon","coordinates":[[[-111.6879,33.3794],[-111.6877,33.3684],[-111.6827,33.3684],[-111.6787,33.3696],[-111.6793,33.372],[-111.6787,33.3761],[-111.6805,33.377],[-111.6808,33.3794],[-111.6879,33.3794]]]}},{"type":"Feature","properties":{"pop":945,"dens":4717.403534954065,"hu":305},"geometry":{"type":"Polygon","coordinates":[[[-111.6808,33.3791],[-111.6807,33.3774],[-111.6798,33.3763],[-111.6755,33.3758],[-111.6708,33.3736],[-111.6681,33.377],[-111.6675,33.3793],[-111.6808,33.3791]]]}},{"type":"Feature","properties":{"pop":1865,"dens":9958.406246591272,"hu":644},"geometry":{"type":"Polygon","coordinates":[[[-111.6793,33.372],[-111.6787,33.3696],[-111.6772,33.3695],[-111.676,33.3686],[-111.6731,33.3697],[-111.6709,33.3698],[-111.6708,33.3736],[-111.6758,33.3759],[-111.6787,33.3761],[-111.6793,33.372]]]}},{"type":"Feature","properties":{"pop":1349,"dens":3133.9932824487187,"hu":1153},"geometry":{"type":"Polygon","coordinates":[[[-111.6616,33.3717],[-111.6604,33.3683],[-111.6604,33.3648],[-111.6534,33.3648],[-111.6536,33.3792],[-111.6608,33.3793],[-111.6616,33.3717]]]}},{"type":"Feature","properties":{"pop":1426,"dens":2753.677107473788,"hu":1232},"geometry":{"type":"Polygon","coordinates":[[[-111.6709,33.3718],[-111.6707,33.3649],[-111.6604,33.3648],[-111.6604,33.3683],[-111.6616,33.3713],[-111.6608,33.3793],[-111.6675,33.3793],[-111.6681,33.377],[-111.6706,33.3741],[-111.6709,33.3718]]]}},{"type":"Feature","properties":{"pop":1389,"dens":4378.164086843335,"hu":1728},"geometry":{"type":"Polygon","coordinates":[[[-111.7277,33.4131],[-111.7277,33.4083],[-111.7134,33.4084],[-111.7198,33.4156],[-111.7277,33.4155],[-111.7277,33.4131]]]}},{"type":"Feature","properties":{"pop":1256,"dens":5045.598573630486,"hu":1167},"geometry":{"type":"Polygon","coordinates":[[[-111.7364,33.4108],[-111.7364,33.4083],[-111.7277,33.4083],[-111.7277,33.4155],[-111.7364,33.4155],[-111.7364,33.4108]]]}},{"type":"Feature","properties":{"pop":2094,"dens":6593.874597258256,"hu":912},"geometry":{"type":"Polygon","coordinates":[[[-111.7197,33.4156],[-111.7134,33.4084],[-111.7064,33.4084],[-111.7064,33.4104],[-111.7051,33.4116],[-111.7052,33.4156],[-111.7197,33.4156]]]}},{"type":"Feature","properties":{"pop":1443,"dens":4729.884741563073,"hu":1111},"geometry":{"type":"Polygon","coordinates":[[[-111.7064,33.4103],[-111.7064,33.4084],[-111.695,33.4085],[-111.6944,33.4115],[-111.6954,33.4156],[-111.7052,33.4156],[-111.7052,33.4115],[-111.7064,33.4103]]]}},{"type":"Feature","properties":{"pop":355,"dens":1209.943129548217,"hu":182},"geometry":{"type":"Polygon","coordinates":[[[-111.6954,33.4156],[-111.6944,33.4115],[-111.695,33.4085],[-111.6846,33.4086],[-111.6845,33.4157],[-111.6954,33.4156]]]}},{"type":"Feature","properties":{"pop":1846,"dens":3669.6485608730773,"hu":1151},"geometry":{"type":"Polygon","coordinates":[[[-111.6845,33.409],[-111.6817,33.4079],[-111.6675,33.4079],[-111.6674,33.4152],[-111.6845,33.4157],[-111.6845,33.409]]]}},{"type":"Feature","properties":{"pop":1052,"dens":5135.028425584656,"hu":1154},"geometry":{"type":"Polygon","coordinates":[[[-111.6675,33.4097],[-111.6675,33.4079],[-111.6604,33.4079],[-111.6603,33.4152],[-111.6674,33.4152],[-111.6675,33.4097]]]}},{"type":"Feature","properties":{"pop":1186,"dens":4746.220411624225,"hu":459},"geometry":{"type":"Polygon","coordinates":[[[-111.6067,33.4102],[-111.6063,33.4078],[-111.598,33.4078],[-111.598,33.4151],[-111.6066,33.4151],[-111.6067,33.4102]]]}},{"type":"Feature","properties":{"pop":1782,"dens":3446.035509138877,"hu":587},"geometry":{"type":"Polygon","coordinates":[[[-111.6362,33.3796],[-111.6362,33.3791],[-111.6189,33.379],[-111.6185,33.3813],[-111.6156,33.3838],[-111.6154,33.3866],[-111.6328,33.3865],[-111.6332,33.3841],[-111.6356,33.3815],[-111.6362,33.3796]]]}},{"type":"Feature","properties":{"pop":1503,"dens":2947.036768447971,"hu":894},"geometry":{"type":"Polygon","coordinates":[[[-111.6424,33.3988],[-111.6414,33.3981],[-111.6415,33.3934],[-111.6328,33.3934],[-111.6327,33.4079],[-111.6417,33.4078],[-111.6414,33.4003],[-111.6424,33.3988]]]}},{"type":"Feature","properties":{"pop":3222,"dens":3197.7495541040366,"hu":1525},"geometry":{"type":"Polygon","coordinates":[[[-111.6879,33.3801],[-111.6879,33.3794],[-111.6675,33.3793],[-111.6675,33.3934],[-111.6815,33.3933],[-111.6847,33.394],[-111.6849,33.3844],[-111.6879,33.3801]]]}},{"type":"Feature","properties":{"pop":2176,"dens":4642.648847722392,"hu":1428},"geometry":{"type":"Polygon","coordinates":[[[-111.6675,33.388],[-111.6675,33.3866],[-111.6503,33.3865],[-111.6501,33.3934],[-111.6675,33.3934],[-111.6675,33.388]]]}},{"type":"Feature","properties":{"pop":2509,"dens":4869.369581537493,"hu":882},"geometry":{"type":"Polygon","coordinates":[[[-111.6675,33.3805],[-111.6675,33.3793],[-111.6498,33.3792],[-111.6501,33.3861],[-111.6675,33.3866],[-111.6675,33.3805]]]}},{"type":"Feature","properties":{"pop":1705,"dens":1837.4540264672346,"hu":1474},"geometry":{"type":"Polygon","coordinates":[[[-111.6503,33.3865],[-111.6498,33.3792],[-111.6362,33.3791],[-111.6357,33.3813],[-111.6329,33.3849],[-111.6328,33.3934],[-111.6501,33.3934],[-111.6503,33.3865]]]}},{"type":"Feature","properties":{"pop":2200,"dens":4329.8296361057655,"hu":929},"geometry":{"type":"Polygon","coordinates":[[[-111.7367,33.3866],[-111.7194,33.3865],[-111.7193,33.3939],[-111.7365,33.3938],[-111.7367,33.3866]]]}},{"type":"Feature","properties":{"pop":541,"dens":1002.5110078432969,"hu":329},"geometry":{"type":"Polygon","coordinates":[[[-111.7397,33.38],[-111.7397,33.3792],[-111.7195,33.3793],[-111.7194,33.3865],[-111.7367,33.3864],[-111.7397,33.38]]]}},{"type":"Feature","properties":{"pop":1671,"dens":6830.652729110358,"hu":556},"geometry":{"type":"Polygon","coordinates":[[[-111.7192,33.4017],[-111.7139,33.4016],[-111.7138,33.3996],[-111.7097,33.3998],[-111.7113,33.4059],[-111.7134,33.4084],[-111.7192,33.4084],[-111.7192,33.4017]]]}},{"type":"Feature","properties":{"pop":2259,"dens":7554.233966098755,"hu":622},"geometry":{"type":"Polygon","coordinates":[[[-111.7193,33.3945],[-111.7193,33.3939],[-111.7063,33.3939],[-111.7097,33.3998],[-111.714,33.3997],[-111.7139,33.4016],[-111.7192,33.4015],[-111.7193,33.3945]]]}},{"type":"Feature","properties":{"pop":3071,"dens":6643.294668941605,"hu":1105},"geometry":{"type":"Polygon","coordinates":[[[-111.7194,33.3866],[-111.7017,33.3866],[-111.7027,33.3884],[-111.703,33.3906],[-111.7053,33.3923],[-111.7063,33.3939],[-111.7193,33.3939],[-111.7194,33.3866]]]}},{"type":"Feature","properties":{"pop":1207,"dens":2102.087850660851,"hu":622},"geometry":{"type":"Polygon","coordinates":[[[-111.7195,33.3811],[-111.7195,33.3793],[-111.6973,33.3794],[-111.7017,33.3866],[-111.7194,33.3865],[-111.7195,33.3811]]]}},{"type":"Feature","properties":{"pop":518,"dens":554.9216138118678,"hu":411},"geometry":{"type":"Polygon","coordinates":[[[-111.7062,33.3939],[-111.7053,33.3923],[-111.703,33.3906],[-111.7025,33.388],[-111.6973,33.3794],[-111.6879,33.3794],[-111.6876,33.3813],[-111.6851,33.3839],[-111.6847,33.394],[-111.7062,33.3939]]]}},{"type":"Feature","properties":{"pop":994,"dens":5943.024283185659,"hu":284},"geometry":{"type":"Polygon","coordinates":[[[-111.6537,33.3789],[-111.6535,33.372],[-111.6464,33.3719],[-111.6483,33.3762],[-111.6485,33.3792],[-111.6537,33.3789]]]}},{"type":"Feature","properties":{"pop":1361,"dens":4026.437835883342,"hu":1008},"geometry":{"type":"Polygon","coordinates":[[[-111.6485,33.3792],[-111.6483,33.3762],[-111.6464,33.3719],[-111.636,33.372],[-111.6362,33.3791],[-111.6485,33.3792]]]}},{"type":"Feature","properties":{"pop":1184,"dens":4906.028203197263,"hu":447},"geometry":{"type":"Polygon","coordinates":[[[-111.6535,33.372],[-111.6534,33.3648],[-111.6442,33.3647],[-111.6449,33.3685],[-111.6464,33.3719],[-111.6535,33.372]]]}},{"type":"Feature","properties":{"pop":1027,"dens":3937.7817691726027,"hu":847},"geometry":{"type":"Polygon","coordinates":[[[-111.6464,33.3719],[-111.6449,33.3685],[-111.6442,33.3647],[-111.6359,33.3647],[-111.636,33.372],[-111.6464,33.3719]]]}},{"type":"Feature","properties":{"pop":2549,"dens":1695.2208973712575,"hu":773},"geometry":{"type":"Polygon","coordinates":[[[-111.6877,33.365],[-111.6874,33.3506],[-111.6618,33.3504],[-111.6618,33.3598],[-111.6616,33.3605],[-111.6599,33.3608],[-111.6604,33.3648],[-111.6877,33.365]]]}},{"type":"Feature","properties":{"pop":1471,"dens":3116.0568015491144,"hu":475},"geometry":{"type":"Polygon","coordinates":[[[-111.6619,33.3568],[-111.6618,33.3504],[-111.6531,33.3503],[-111.6534,33.3648],[-111.6604,33.3648],[-111.6599,33.3607],[-111.6616,33.3605],[-111.6619,33.3568]]]}},{"type":"Feature","properties":{"pop":3014,"dens":2998.847737538225,"hu":1116},"geometry":{"type":"Polygon","coordinates":[[[-111.6534,33.3646],[-111.6531,33.3503],[-111.6357,33.3502],[-111.6359,33.3647],[-111.6534,33.3646]]]}},{"type":"Feature","properties":{"pop":2786,"dens":5722.79369168081,"hu":1154},"geometry":{"type":"Polygon","coordinates":[[[-111.6362,33.3791],[-111.6361,33.3755],[-111.6345,33.3754],[-111.6332,33.3744],[-111.6324,33.37],[-111.631,33.3682],[-111.6289,33.3673],[-111.6256,33.3672],[-111.6236,33.3678],[-111.6222,33.3691],[-111.6215,33.3707],[-111.6217,33.3736],[-111.6257,33.3769],[-111.6262,33.3791],[-111.6362,33.3791]]]}},{"type":"Feature","properties":{"pop":1209,"dens":5699.242343534402,"hu":548},"geometry":{"type":"Polygon","coordinates":[[[-111.6361,33.3755],[-111.6359,33.3647],[-111.6273,33.3646],[-111.6273,33.3672],[-111.6297,33.3675],[-111.6314,33.3686],[-111.6324,33.3702],[-111.6331,33.3743],[-111.6343,33.3753],[-111.6361,33.3755]]]}},{"type":"Feature","properties":{"pop":1468,"dens":4977.770654509323,"hu":499},"geometry":{"type":"Polygon","coordinates":[[[-111.6273,33.3659],[-111.6273,33.3646],[-111.6187,33.3645],[-111.6189,33.379],[-111.6262,33.3791],[-111.6255,33.3767],[-111.6218,33.374],[-111.6215,33.3707],[-111.6229,33.3683],[-111.6249,33.3673],[-111.6273,33.3672],[-111.6273,33.3659]]]}},{"type":"Feature","properties":{"pop":2821,"dens":2838.993377882878,"hu":946},"geometry":{"type":"Polygon","coordinates":[[[-111.6359,33.3647],[-111.6357,33.3502],[-111.6186,33.3501],[-111.6187,33.3645],[-111.6359,33.3647]]]}},{"type":"Feature","properties":{"pop":3540,"dens":3553.324775394862,"hu":986},"geometry":{"type":"Polygon","coordinates":[[[-111.6187,33.3645],[-111.6186,33.3501],[-111.6012,33.3499],[-111.6013,33.3644],[-111.6187,33.3645]]]}},{"type":"Feature","properties":{"pop":4097,"dens":4063.7605305836155,"hu":1216},"geometry":{"type":"Polygon","coordinates":[[[-111.619,33.3785],[-111.6187,33.3645],[-111.6013,33.3644],[-111.6017,33.3789],[-111.6187,33.379],[-111.619,33.3785]]]}},{"type":"Feature","properties":{"pop":2620,"dens":2314.321767496653,"hu":2080},"geometry":{"type":"Polygon","coordinates":[[[-111.6017,33.3789],[-111.6013,33.3644],[-111.5976,33.364],[-111.5917,33.3613],[-111.584,33.3618],[-111.5843,33.3788],[-111.6017,33.3789]]]}},{"type":"Feature","properties":{"pop":1851,"dens":2136.577063202464,"hu":710},"geometry":{"type":"Polygon","coordinates":[[[-111.6013,33.3644],[-111.6012,33.3499],[-111.5839,33.3498],[-111.584,33.3618],[-111.5917,33.3613],[-111.5976,33.364],[-111.6013,33.3644]]]}},{"type":"Feature","properties":{"pop":5923,"dens":4998.500059029213,"hu":1649},"geometry":{"type":"Polygon","coordinates":[[[-111.6026,33.3363],[-111.6025,33.321],[-111.5921,33.3209],[-111.5924,33.3498],[-111.6025,33.3499],[-111.6026,33.3363]]]}},{"type":"Feature","properties":{"pop":1337,"dens":5450.959070151037,"hu":439},"geometry":{"type":"Polygon","coordinates":[[[-111.5924,33.3498],[-111.5923,33.3426],[-111.5838,33.3426],[-111.5839,33.3498],[-111.5924,33.3498]]]}},{"type":"Feature","properties":{"pop":1427,"dens":5839.361494288393,"hu":476},"geometry":{"type":"Polygon","coordinates":[[[-111.5923,33.3426],[-111.5922,33.3354],[-111.5838,33.3353],[-111.5838,33.3426],[-111.5923,33.3426]]]}},{"type":"Feature","properties":{"pop":3001,"dens":6138.2162326225325,"hu":841},"geometry":{"type":"Polygon","coordinates":[[[-111.5922,33.3354],[-111.5921,33.3209],[-111.5836,33.3209],[-111.5838,33.3353],[-111.5922,33.3354]]]}},{"type":"Feature","properties":{"pop":1161,"dens":192.59938493282613,"hu":702},"geometry":{"type":"Polygon","coordinates":[[[-111.6891,33.3054],[-111.6867,33.3013],[-111.6864,33.2887],[-111.6695,33.2887],[-111.6694,33.2925],[-111.6349,33.2922],[-111.6354,33.3154],[-111.6398,33.3176],[-111.6442,33.317],[-111.6442,33.3211],[-111.6699,33.3214],[-111.67,33.3225],[-111.6809,33.3226],[-111.6828,33.3217],[-111.6875,33.3072],[-111.6887,33.3071],[-111.6891,33.3054]]]}},{"type":"Feature","properties":{"pop":1596,"dens":91.6646492153534,"hu":475},"geometry":{"type":"Polygon","coordinates":[[[-111.6874,33.3506],[-111.6869,33.3217],[-111.6827,33.3217],[-111.6809,33.3226],[-111.67,33.3225],[-111.6699,33.3214],[-111.6442,33.3211],[-111.6442,33.317],[-111.6398,33.3176],[-111.6354,33.3154],[-111.6353,33.3084],[-111.6349,33.2922],[-111.6694,33.2925],[-111.6695,33.2887],[-111.6825,33.289],[-111.6864,33.2887],[-111.6861,33.2882],[-111.6696,33.2779],[-111.5832,33.2774],[-111.5836,33.3209],[-111.6355,33.3211],[-111.6357,33.3502],[-111.6874,33.3506]]]}},{"type":"Feature","properties":{"pop":1803,"dens":470.9129954599252,"hu":531},"geometry":{"type":"Polygon","coordinates":[[[-111.6358,33.3469],[-111.6355,33.3211],[-111.6025,33.321],[-111.6025,33.3499],[-111.6357,33.3502],[-111.6358,33.3469]]]}}]}