{"type":"FeatureCollection","features":[{"type":"Feature","properties":{"kind":"county-island","sqmi":4.41},"geometry":{"type":"Polygon","coordinates":[[[-111.61548602342906,33.43321173238794],[-111.61104767648415,33.43321186513005],[-111.61105418372972,33.4294768163928],[-111.61549232386824,33.42948058216073],[-111.61550108673424,33.42218246360422],[-111.60786444371203,33.42217742474461],[-111.60788345054567,33.41494094258027],[-111.60679867560114,33.414940986273294],[-111.60681787361376,33.40767371517454],[-111.60666856916367,33.41494065943554],[-111.59041238707249,33.4149344607992],[-111.59041192388547,33.41153571878856],[-111.59818061077856,33.41154116797698],[-111.59818900171693,33.40764691434333],[-111.6024458107852,33.40764677601374],[-111.60244847232117,33.405144381553775],[-111.60220346639656,33.40496124895555],[-111.60054009183685,33.40587919468597],[-111.60023533791016,33.40459588430754],[-111.60086568086463,33.404446319695275],[-111.6007696313018,33.40388850889107],[-111.59783519319328,33.40411211086575],[-111.5978297419706,33.407674574736625],[-111.5935742557162,33.40767153472326],[-111.59357696999724,33.404275892150025],[-111.58920466571755,33.40427267361919],[-111.58920700935987,33.40067117456056],[-111.584902050855,33.400670181093105],[-111.58490149978542,33.39701452921424],[-111.58086737239971,33.39701274687638],[-111.58081841437146,33.41641548359211],[-111.58279102936223,33.41641613730896],[-111.58279163782689,33.415999481980776],[-111.58489138638733,33.41600401778993],[-111.58487681471415,33.42217384740393],[-111.5808683926045,33.42217405218546],[-111.58086722561204,33.42247774691559],[-111.58917907664357,33.422477986266586],[-111.58918211543714,33.42603991039746],[-111.59374793012596,33.42603814151411],[-111.59374370768823,33.422479512193426],[-111.5977947560711,33.42247900097964],[-111.59779554576848,33.425405536599925],[-111.5975165263632,33.42725442436621],[-111.59778711466969,33.42947364457386],[-111.58917933941834,33.429470738050576],[-111.5891789326927,33.43139190022413],[-111.58822687074843,33.431391799331124],[-111.58822750100971,33.436683340079476],[-111.58390243377552,33.4366808810082],[-111.58390427895601,33.435014600524134],[-111.58498579206406,33.43501406478396],[-111.58498440244735,33.43320369814924],[-111.58714653356171,33.43320451648203],[-111.58714517695435,33.431391675916515],[-111.58173662797994,33.431390803504456],[-111.58173683227322,33.429469841557],[-111.58086939515964,33.42946970264719],[-111.58087237846826,33.43501528343672],[-111.58173641761998,33.435015096848026],[-111.58173623660889,33.43672115733764],[-111.58087329470881,33.43672079589896],[-111.58086196066932,33.44405586584208],[-111.59798701073899,33.4440616950247],[-111.59798181231902,33.45116715083319],[-111.61540770389732,33.45116950491533],[-111.61541235818473,33.4460190437834],[-111.61596420081608,33.443805184265464],[-111.61599214960285,33.44047061917266],[-111.61594700153361,33.43916542835728],[-111.61544243244309,33.4372984829347],[-111.61548602342906,33.43321173238794]]]}},{"type":"Feature","properties":{"kind":"county-island","sqmi":0.88},"geometry":{"type":"Polygon","coordinates":[[[-111.59777630394547,33.3877247238416],[-111.59785324457454,33.38839504637158],[-111.59784909641624,33.384381335887355],[-111.59819180552044,33.38338344382434],[-111.5981944353167,33.3790588236783],[-111.58085211921069,33.37896144053942],[-111.58086792621431,33.393454389369445],[-111.59348778335404,33.393461890906146],[-111.59349107815336,33.38770493080999],[-111.59777630394547,33.3877247238416]]]}},{"type":"Feature","properties":{"kind":"county-island","sqmi":0.69},"geometry":{"type":"Polygon","coordinates":[[[-111.6333372998545,33.30568601979614],[-111.63181068609421,33.30537549234348],[-111.6295775144045,33.30407937837729],[-111.6282873815261,33.303737880886935],[-111.62695573035766,33.30382602023928],[-111.62558577888849,33.30436719910404],[-111.62536876849929,33.30403509175821],[-111.62354583215773,33.30479578064128],[-111.62180345279177,33.30317890275642],[-111.61802016777366,33.30146533180616],[-111.61796105983642,33.30103168582079],[-111.61714556531295,33.30103435512518],[-111.61708097790448,33.301395729077996],[-111.61388642270526,33.300099674482865],[-111.61004887221429,33.29912982427817],[-111.60477077397792,33.298476965142854],[-111.60471753955896,33.29569787463158],[-111.60077226025332,33.295700289954844],[-111.6007402615113,33.302843985363644],[-111.60274582776815,33.30286246290176],[-111.60276853481993,33.30467367622551],[-111.60503402296897,33.30469103475493],[-111.60498620697525,33.299940999766854],[-111.60710864236627,33.299916803186335],[-111.61060480401194,33.30043896881538],[-111.61518428479071,33.301856941096226],[-111.62126583964466,33.305806050771224],[-111.6276459524077,33.311834075260805],[-111.6332617488976,33.31831188080555],[-111.63530228911647,33.31875156364204],[-111.63503809748927,33.30568494595318],[-111.6333372998545,33.30568601979614]]]}},{"type":"Feature","properties":{"kind":"county-island","sqmi":4.87},"geometry":{"type":"Polygon","coordinates":[[[-111.61961567902475,33.40405321661993],[-111.61558853936853,33.40411441668378],[-111.6155763729138,33.40764883436117],[-111.60685303406989,33.40764659319098],[-111.6068338371298,33.4149146966099],[-111.60791665387332,33.41491189213436],[-111.6079052852637,33.41961574721727],[-111.60882132026579,33.41961829971844],[-111.60882354597928,33.41870693600298],[-111.61173178372073,33.41870336414659],[-111.61160045374476,33.419281617006725],[-111.61099254221767,33.41923534569553],[-111.61098614780236,33.42141643309354],[-111.61229077354155,33.42141946883755],[-111.61228723463259,33.42215353217864],[-111.61553427975383,33.42215615951354],[-111.61553071474295,33.42604513099154],[-111.61756614795154,33.4260473082479],[-111.61756532065068,33.426289165763336],[-111.61827274350445,33.42645302506415],[-111.61665204452265,33.42880448834118],[-111.61688572286577,33.42948115882691],[-111.61552543412903,33.42948061025411],[-111.61553280678858,33.43509695375295],[-111.61747123840344,33.435100854358915],[-111.61746872767453,33.43669548955369],[-111.61551663063896,33.43669324630126],[-111.61551592690762,33.43699441471444],[-111.62409137636425,33.4370079684853],[-111.62410417269109,33.42971319541492],[-111.63283057572515,33.429725087548874],[-111.63282322171939,33.432371499625006],[-111.63697632682036,33.43237873887817],[-111.63698042459313,33.43129903329388],[-111.6359831244344,33.43129225297836],[-111.63598382669527,33.43089401140055],[-111.63698193618008,33.43090052120887],[-111.63699187475788,33.42419844713076],[-111.63494718857112,33.42419498978018],[-111.63501969365784,33.42593132234406],[-111.63369030693208,33.425928104672685],[-111.63283335332486,33.425419503478075],[-111.63283791627833,33.42417497065731],[-111.63149621818332,33.42417338936445],[-111.63149670030273,33.422207744658174],[-111.63103325918286,33.422207118436475],[-111.63103837143848,33.42107672467542],[-111.63277436673661,33.42122911265029],[-111.63289137634582,33.41865237326343],[-111.62834136740982,33.41864363640455],[-111.6283569409065,33.41551143349795],[-111.63290211722348,33.41551706360091],[-111.6328970461072,33.41699754814873],[-111.63692725685813,33.41700738846394],[-111.63699441792664,33.42221640924474],[-111.65879007241813,33.42225532806238],[-111.65882889472418,33.415565761530154],[-111.66308685730779,33.4155717993844],[-111.6630743997338,33.417834260900975],[-111.66516666981254,33.41783714780961],[-111.66516097275543,33.41866603129446],[-111.66723427370866,33.418670836786916],[-111.6672511486631,33.41505529924747],[-111.66047378553299,33.415041484317534],[-111.6604909813394,33.4080495734914],[-111.65927201357754,33.408047050713414],[-111.65927077479193,33.40821992200055],[-111.65887557043494,33.40821800233046],[-111.65887535103532,33.40804622719729],[-111.65354423244402,33.40803828317784],[-111.65354453135812,33.408433394351206],[-111.65295565357394,33.408432026905835],[-111.65295582125873,33.408037445128734],[-111.64998669516005,33.40803317107588],[-111.64996721057301,33.411006666380075],[-111.64881546780275,33.410998961675055],[-111.64882938325593,33.4080585543898],[-111.6414092961811,33.408044702634584],[-111.6413830215276,33.4133072968523],[-111.64083726543276,33.41330625691605],[-111.64083753786555,33.4149829416867],[-111.6371572185785,33.414962907614004],[-111.63715520443425,33.41140470467248],[-111.63695787933534,33.41140456383916],[-111.63718207512488,33.40431473266347],[-111.64407522560104,33.404336667103934],[-111.64533394022935,33.404038644381025],[-111.64621380287916,33.4043268077795],[-111.64994377284268,33.40433697276162],[-111.64995214814269,33.4005132118778],[-111.6480582049387,33.40051187409766],[-111.64805518338981,33.39872072832549],[-111.64157759006088,33.3987101075849],[-111.64159816790253,33.39320508536412],[-111.63296148025384,33.39319388434166],[-111.63296156250256,33.38609198469095],[-111.63260118443354,33.3860911604065],[-111.63259911611651,33.394275028272716],[-111.63396313186757,33.39427634233502],[-111.63395248066755,33.39607298699879],[-111.63258996359245,33.396071261382],[-111.63258580705131,33.39688688845667],[-111.62420760805351,33.396875667672944],[-111.62422322016019,33.39318459043726],[-111.61540306692766,33.3931717349744],[-111.61540245661674,33.39347295802285],[-111.6190487125543,33.393477635199865],[-111.61902612716264,33.399154419020086],[-111.62388870297298,33.39915636940092],[-111.62388429688991,33.40047306668969],[-111.61963145275149,33.40046693047284],[-111.61961567902475,33.40405321661993]]]}},{"type":"Feature","properties":{"kind":"county-island","sqmi":0.07},"geometry":{"type":"Polygon","coordinates":[[[-111.61960861417776,33.45117314176689],[-111.62285565811354,33.451176445526684],[-111.62285601022029,33.45040755484703],[-111.62339909305479,33.450409445534525],[-111.623396515051,33.45117698743704],[-111.62410292686384,33.4511776922973],[-111.62410331401843,33.45135551327628],[-111.62610184814089,33.45120826949643],[-111.6261057304412,33.449547942010575],[-111.62394020781853,33.44954449249619],[-111.62394168560598,33.447734134647206],[-111.61961386539788,33.447726696497355],[-111.61960861417776,33.45117314176689]]]}},{"type":"Feature","properties":{"kind":"county-island","sqmi":0.09},"geometry":{"type":"Polygon","coordinates":[[[-111.63052032899533,33.444229599187665],[-111.62719707108867,33.444222469694125],[-111.6271929526364,33.44774012064918],[-111.63055437353627,33.44774586443928],[-111.63055337562162,33.4486532414174],[-111.63009373668478,33.44955744105581],[-111.63260040923807,33.44956162011266],[-111.63260863623951,33.4442338899769],[-111.63152612548008,33.444231689641185],[-111.63152499624998,33.445028210293465],[-111.63051969454798,33.4450236439804],[-111.63052032899533,33.444229599187665]]]}},{"type":"Feature","properties":{"kind":"county-island","sqmi":0.07},"geometry":{"type":"Polygon","coordinates":[[[-111.63488036566442,33.2988721572631],[-111.63475976170216,33.29239558133681],[-111.63085599517592,33.29236351580068],[-111.63092425927684,33.2954788730888],[-111.63474638342257,33.298757324201866],[-111.63458118591615,33.29896593996701],[-111.63488036566442,33.2988721572631]]]}},{"type":"Feature","properties":{"kind":"county-island","sqmi":2.56},"geometry":{"type":"Polygon","coordinates":[[[-111.64339287408278,33.478895845649085],[-111.63689834481447,33.47879974314642],[-111.63689802722268,33.476985692776935],[-111.65000512315966,33.477041067117874],[-111.65000550822457,33.47884639447616],[-111.65420440041316,33.47887090046707],[-111.65420524471176,33.47706397318046],[-111.656364506528,33.477074575199914],[-111.65636663890632,33.47888375048347],[-111.65744958319303,33.4788902300856],[-111.65745135269941,33.47707987809527],[-111.65853794512407,33.47708517544069],[-111.65853221348908,33.473453727462704],[-111.66726064171351,33.47350351883105],[-111.66730561751656,33.4652163569952],[-111.66653903144585,33.46509292045982],[-111.6665448156836,33.46434282628164],[-111.66934305165465,33.464288216052154],[-111.6693564989758,33.46231874812156],[-111.67154121400795,33.46231636848022],[-111.67153225288733,33.45857867838223],[-111.6673333994785,33.45858042244314],[-111.66735947521003,33.453254262383105],[-111.66506374673465,33.45324748813803],[-111.66507291053831,33.45158647156919],[-111.66290500694006,33.45158205198968],[-111.66286797902208,33.4586838080039],[-111.64976125176845,33.45865792055851],[-111.64975770786256,33.45949534568652],[-111.64881322632942,33.45943614121046],[-111.64881725903018,33.45865576212406],[-111.6434054526566,33.45864324363598],[-111.64339411920773,33.46226421185613],[-111.64447270272314,33.46233611712519],[-111.64446654149025,33.46420693056029],[-111.64546993768192,33.464211878894446],[-111.64546287267414,33.46595818467768],[-111.64007288754142,33.46576991875161],[-111.63889021121535,33.465178519366575],[-111.63699426781741,33.46343146236855],[-111.63699905157638,33.462245271656315],[-111.63798406774127,33.462248315734044],[-111.63799463210584,33.45863036940781],[-111.63244970733669,33.458617775839436],[-111.63244054173467,33.48056354777366],[-111.6423135583774,33.48060916299922],[-111.64230895165934,33.47889257642828],[-111.64339287408278,33.478895845649085]]]}},{"type":"Feature","properties":{"kind":"county-island","sqmi":0.06},"geometry":{"type":"Polygon","coordinates":[[[-111.63697815372898,33.43815806407581],[-111.63280702321049,33.43816040124417],[-111.63279982975887,33.44058144308362],[-111.63912879227549,33.440579008559986],[-111.63913872556952,33.43869006115451],[-111.63697647644743,33.43868217932431],[-111.63697815372898,33.43815806407581]]]}},{"type":"Feature","properties":{"kind":"county-island","sqmi":0.06},"geometry":{"type":"Polygon","coordinates":[[[-111.64460518143306,33.3406138312359],[-111.64435471695285,33.34299984482241],[-111.64864832895961,33.343031806148794],[-111.64859671489624,33.33942532843729],[-111.64500578412797,33.33940226814661],[-111.64460518143306,33.3406138312359]]]}},{"type":"Feature","properties":{"kind":"county-island","sqmi":0.3},"geometry":{"type":"Polygon","coordinates":[[[-111.6704794106344,33.33598968168919],[-111.66154971136,33.335826461979295],[-111.66168825127463,33.343139465304006],[-111.66603230832328,33.34317586069036],[-111.66607278004967,33.34497532405802],[-111.67031183428713,33.34501266374966],[-111.67041619603333,33.35007507475721],[-111.67070498309418,33.35007084636067],[-111.6704794106344,33.33598968168919]]]}},{"type":"Feature","properties":{"kind":"county-island","sqmi":1.76},"geometry":{"type":"Polygon","coordinates":[[[-111.70186268890306,33.41830245823198],[-111.70186793575843,33.417499932695655],[-111.69752210097391,33.41751706484277],[-111.69751799149034,33.41784961411889],[-111.69719001904721,33.41794248059854],[-111.69545299198478,33.417947639630036],[-111.69546336058568,33.41643878184275],[-111.69092421748806,33.41645533815385],[-111.69092301890639,33.41691981629838],[-111.6898700571731,33.41692377220761],[-111.6898677799806,33.41752635237487],[-111.6909198666224,33.41752555989074],[-111.6909145796581,33.41853943768695],[-111.68884565967417,33.418506242813756],[-111.6888194758738,33.422763878194175],[-111.6873791399795,33.422766495622355],[-111.68720684289887,33.41679206647425],[-111.68467670335833,33.41680384946681],[-111.68467063006953,33.417957188360624],[-111.6854602273111,33.41795387261004],[-111.6854580493213,33.41877811577892],[-111.68532569150499,33.419254991889076],[-111.6846630490005,33.419397189260735],[-111.68465862352282,33.42023761177241],[-111.68500977188909,33.42023585775512],[-111.68500654787364,33.4206967600546],[-111.68465619645403,33.42069856604399],[-111.68464369265298,33.42307290076996],[-111.68721660057582,33.4230694431923],[-111.68717630358844,33.42653857048976],[-111.68526381806382,33.426538841538914],[-111.6852465694845,33.42826472606826],[-111.684593854191,33.42826582393819],[-111.68458929816386,33.428750999655776],[-111.68560214465388,33.428747394719956],[-111.68559542568629,33.43005012513258],[-111.68766374711645,33.43004846521747],[-111.68766317185343,33.43026833604966],[-111.684601654235,33.43027088825283],[-111.68458099764273,33.43187866487785],[-111.69295935893096,33.43186933023677],[-111.69295038915212,33.43285964493622],[-111.6931882548383,33.43285927755299],[-111.69319136428571,33.43253101325151],[-111.69582144546432,33.43252919859466],[-111.69582162252007,33.43226142954942],[-111.69607992437008,33.43226095684596],[-111.69607958172698,33.43252902766903],[-111.69740645386561,33.43252807747956],[-111.69740480702218,33.4327826772794],[-111.69760148733987,33.432782369281966],[-111.69760317145676,33.43252212218562],[-111.70153617394801,33.43251444296937],[-111.70154879068555,33.43013618506323],[-111.71884244524911,33.43010735738145],[-111.71890440519638,33.41922294088642],[-111.71598943615047,33.419230350671775],[-111.715286487539,33.41744577034887],[-111.711576388139,33.41745864797499],[-111.71157455974584,33.41790389119902],[-111.7106241220136,33.4179023162842],[-111.71062515084634,33.41746532054753],[-111.71036296275003,33.417464884814564],[-111.71036163471405,33.418028306193364],[-111.70627470589073,33.4180379300061],[-111.706285335866,33.41634217960255],[-111.70608872391277,33.41633085245125],[-111.70494347283332,33.416936300249326],[-111.7031528063508,33.41744168695416],[-111.70275812148516,33.418015424096055],[-111.70186268890306,33.41830245823198]]]}},{"type":"Feature","properties":{"kind":"county-island","sqmi":1.37},"geometry":{"type":"Polygon","coordinates":[[[-111.68560877957114,33.4043896490796],[-111.68629788935309,33.4043964280876],[-111.68628454946726,33.40535614804489],[-111.6865611148727,33.40535858548223],[-111.68653600288879,33.406933653174285],[-111.6876842631079,33.406929732555724],[-111.68769354890357,33.40839108015199],[-111.71072875468957,33.4082375755843],[-111.71077081227477,33.40342740551623],[-111.70981695028028,33.39953750602349],[-111.70928186204974,33.39831635272754],[-111.7065711840656,33.3940500006224],[-111.68491700391192,33.39412385351179],[-111.68479537356214,33.40367986450336],[-111.68561816855697,33.40368772207706],[-111.68560877957114,33.4043896490796]]]}},{"type":"Feature","properties":{"kind":"county-island","sqmi":0.1},"geometry":{"type":"Polygon","coordinates":[[[-111.75365530540108,33.47570211123587],[-111.75369034601638,33.477266706363174],[-111.76169772006388,33.47728300064067],[-111.76178625494681,33.47264132427436],[-111.75365530540108,33.47570211123587]]]}},{"type":"Feature","properties":{"kind":"county-island","sqmi":0.02},"geometry":{"type":"Polygon","coordinates":[[[-111.83986456214976,33.38431774853986],[-111.83823058653371,33.3844778119929],[-111.83524261752639,33.3843443074186],[-111.83521892575872,33.385456762472494],[-111.83976671447998,33.38535460604972],[-111.83986456214976,33.38431774853986]]]}}]}