{"type":"FeatureCollection","features":[{"type":"Feature","properties":{"name":"City of Mesa (incorporated)"},"geometry":{"type":"MultiPolygon","coordinates":[[[[-111.62390098018194,33.46603416516289],[-111.62406873537657,33.45120537036209],[-111.59794793772326,33.45119592255222],[-111.59795420741207,33.44408917019492],[-111.58082808325022,33.44408463199784],[-111.58083998379821,33.422146491470194],[-111.58484905847314,33.42214683848304],[-111.58486145650387,33.41603224573965],[-111.58282430528054,33.41602705373154],[-111.58282402386106,33.416443984957375],[-111.5807855358158,33.41644315343318],[-111.58082011744762,33.378933870859164],[-111.5842571490977,33.37894862219119],[-111.5837037581961,33.32094053175649],[-111.59104803616005,33.32100364827805],[-111.59103125811869,33.319041412131845],[-111.59225382157456,33.319050800781966],[-111.59215365823451,33.3120466017526],[-111.59492411236373,33.31207831430289],[-111.59486839641113,33.306262646641784],[-111.5833874127123,33.30616440127397],[-111.58330405122808,33.27734611935378],[-111.63463962354527,33.27789497015175],[-111.6345845668708,33.2775920323785],[-111.6351485945442,33.277597314562264],[-111.63514028564752,33.27789959192253],[-111.6688786902663,33.27812567750419],[-111.68629742031086,33.28895239149131],[-111.68658934227366,33.30149226562346],[-111.68703494633033,33.302467283216274],[-111.6885891891164,33.30414383352373],[-111.68893223867215,33.305299652233785],[-111.68853148138987,33.30703038656834],[-111.68650205360267,33.3070403872361],[-111.68650705560671,33.30734295593455],[-111.68840668457746,33.307334478799035],[-111.6868257356196,33.311008185756236],[-111.6866076906264,33.312155411074095],[-111.68676660980255,33.32165506178391],[-111.68706210199544,33.32165548651782],[-111.68718124349103,33.32887665472832],[-111.68686914288016,33.32887789652641],[-111.68743012795667,33.36140383821116],[-111.68773972134993,33.361400650185985],[-111.68809816595828,33.37955048232945],[-111.71816210547927,33.379432356158674],[-111.71809523662569,33.38581409385443],[-111.71908805862807,33.38575246396988],[-111.71924098464919,33.38476602288194],[-111.71960135334581,33.38476934398171],[-111.71974001607228,33.38575350009894],[-111.72768579732504,33.38580129808097],[-111.72783878671855,33.383392577330326],[-111.72716202565434,33.38115258656295],[-111.72713770227477,33.37940236208485],[-111.76725913908939,33.37924275784373],[-111.76727603820464,33.378937702309784],[-111.76687968584058,33.378915238243124],[-111.84140141383543,33.37860159718298],[-111.84215420286371,33.377440919434584],[-111.84246823511684,33.376449935587615],[-111.84202292808429,33.36421663741938],[-111.84200180190162,33.357062697229566],[-111.85909768023474,33.35721058510897],[-111.89433525438592,33.35684779801826],[-111.89442583520713,33.36300751117738],[-111.89409465017947,33.36448336851775],[-111.8934952917689,33.37695844018634],[-111.892973596575,33.38035364350914],[-111.89200575587704,33.38166898229518],[-111.88738581198879,33.384482872163886],[-111.88084222388206,33.38578015939244],[-111.87962267505631,33.38768722044197],[-111.87993819766156,33.3931841790991],[-111.8842347188428,33.399308590681834],[-111.88598668067675,33.402450482947145],[-111.88852173505813,33.408378332721746],[-111.88868736204795,33.41003044849465],[-111.88756221039597,33.411820315322174],[-111.8836611060924,33.4156656957843],[-111.88200870940356,33.41724834004659],[-111.87813677970772,33.42029246040895],[-111.8770153382076,33.422210506318564],[-111.88288583687462,33.42218748933453],[-111.88272279904939,33.42937180912897],[-111.89176604237451,33.42930025791067],[-111.8920566999019,33.4404344248613],[-111.87433113343118,33.440399459704],[-111.87412964191944,33.43674400405399],[-111.86934455262026,33.436723352822014],[-111.86736912034837,33.437987925942146],[-111.8658672399189,33.439954086318714],[-111.86527691808395,33.44036033449886],[-111.86516562698478,33.43670490269375],[-111.85639503146007,33.436662498296435],[-111.85645635344177,33.442860191812315],[-111.86093031422061,33.44287986020705],[-111.86097451800593,33.44400068113918],[-111.85451609228318,33.44412668400958],[-111.85452872345896,33.44556199859565],[-111.85315898554767,33.446489477274],[-111.852164837889,33.447531530124984],[-111.85218835420747,33.45122970429979],[-111.84798836721134,33.45124120281665],[-111.84813626721338,33.45498460955118],[-111.83620786392396,33.45507916635757],[-111.83562023808012,33.45585658256634],[-111.83467056295925,33.45809315912613],[-111.83371581341606,33.458708168907364],[-111.83539781553576,33.458816465249114],[-111.83546987213073,33.46244714784876],[-111.8267493970051,33.46250381680182],[-111.82677952105395,33.46638512495127],[-111.78729242402358,33.46626046139741],[-111.78729700324087,33.48091046129736],[-111.7788678853115,33.48095636454835],[-111.77908861966084,33.47198586899927],[-111.77517514128273,33.47198393259211],[-111.77479653880168,33.47280370195312],[-111.77878225630667,33.47280118168004],[-111.77878303393577,33.473003798482246],[-111.77521535106894,33.476593882209485],[-111.77124621580207,33.47657094766205],[-111.77274226236239,33.47473404436016],[-111.77038657656146,33.47469606644861],[-111.77029461610613,33.47872440022868],[-111.7718667298097,33.480662767000084],[-111.77313982856813,33.48066220185782],[-111.77314066872876,33.48093703895088],[-111.77691771542777,33.48092889382693],[-111.77691886607383,33.48129992330541],[-111.77563227676342,33.48213415525836],[-111.77108950312928,33.48202206969708],[-111.76766072505724,33.483414600108574],[-111.76592682651945,33.48369094881416],[-111.76592745603324,33.4831324509416],[-111.76526930402302,33.483309256636694],[-111.76527685536223,33.48285302942275],[-111.76592776897859,33.48285486426055],[-111.7659368613428,33.481020986186564],[-111.76195351674512,33.48102923633085],[-111.76184717233224,33.48208582629613],[-111.76036331963044,33.48221746623638],[-111.76032445757325,33.48454113748766],[-111.73578034384661,33.484662184684524],[-111.73505823009184,33.48491947597738],[-111.73281157427215,33.486438762650955],[-111.73224496731201,33.487600484689004],[-111.73145720806922,33.487863152932604],[-111.72970789330034,33.48682713383203],[-111.72904365885441,33.48608131759801],[-111.7282209628929,33.485816224483635],[-111.72735115450934,33.48610347630939],[-111.72642447395502,33.48689908675913],[-111.72614021376795,33.4878990593315],[-111.72531751338944,33.48912906434054],[-111.72371475617678,33.49007201900357],[-111.72338906618899,33.49050575466853],[-111.72370147143864,33.49163032916241],[-111.72299624055063,33.493107854228874],[-111.71969769783017,33.49396014391753],[-111.7193584158459,33.49458623322047],[-111.7195038379415,33.49613737330748],[-111.71662555847657,33.498191287923504],[-111.7147192914204,33.50117294286137],[-111.71014055928698,33.50494445995123],[-111.702575913643,33.50737769487492],[-111.70030585569174,33.50860503640853],[-111.69725384832718,33.511024861156066],[-111.69335648498128,33.512298101705646],[-111.69207991267453,33.5101242723827],[-111.68660041445393,33.50782203515815],[-111.68690001376788,33.50618453833018],[-111.6852650935106,33.50414384715235],[-111.68409149353582,33.50382008321927],[-111.68410097179844,33.49535698485699],[-111.6325814431556,33.49510191923435],[-111.63256967491724,33.48059050329469],[-111.63240568956354,33.48059012730106],[-111.63240050173741,33.46607594421114],[-111.62390098018194,33.46603416516289]],[[-111.61548602342906,33.43321173238794],[-111.61104767648415,33.43321186513005],[-111.61105418372972,33.4294768163928],[-111.61549232386824,33.42948058216073],[-111.61550108673424,33.42218246360422],[-111.60786444371203,33.42217742474461],[-111.60788345054567,33.41494094258027],[-111.60679867560114,33.414940986273294],[-111.60681787361376,33.40767371517454],[-111.60666856916367,33.41494065943554],[-111.59041238707249,33.4149344607992],[-111.59041192388547,33.41153571878856],[-111.59818061077856,33.41154116797698],[-111.59818900171693,33.40764691434333],[-111.6024458107852,33.40764677601374],[-111.60244847232117,33.405144381553775],[-111.60220346639656,33.40496124895555],[-111.60054009183685,33.40587919468597],[-111.60023533791016,33.40459588430754],[-111.60086568086463,33.404446319695275],[-111.6007696313018,33.40388850889107],[-111.59783519319328,33.40411211086575],[-111.5978297419706,33.407674574736625],[-111.5935742557162,33.40767153472326],[-111.59357696999724,33.404275892150025],[-111.58920466571755,33.40427267361919],[-111.58920700935987,33.40067117456056],[-111.584902050855,33.400670181093105],[-111.58490149978542,33.39701452921424],[-111.58086737239971,33.39701274687638],[-111.58081841437146,33.41641548359211],[-111.58279102936223,33.41641613730896],[-111.58279163782689,33.415999481980776],[-111.58489138638733,33.41600401778993],[-111.58487681471415,33.42217384740393],[-111.5808683926045,33.42217405218546],[-111.58086722561204,33.42247774691559],[-111.58917907664357,33.422477986266586],[-111.58918211543714,33.42603991039746],[-111.59374793012596,33.42603814151411],[-111.59374370768823,33.422479512193426],[-111.5977947560711,33.42247900097964],[-111.59779554576848,33.425405536599925],[-111.5975165263632,33.42725442436621],[-111.59778711466969,33.42947364457386],[-111.58917933941834,33.429470738050576],[-111.5891789326927,33.43139190022413],[-111.58822687074843,33.431391799331124],[-111.58822750100971,33.436683340079476],[-111.58390243377552,33.4366808810082],[-111.58390427895601,33.435014600524134],[-111.58498579206406,33.43501406478396],[-111.58498440244735,33.43320369814924],[-111.58714653356171,33.43320451648203],[-111.58714517695435,33.431391675916515],[-111.58173662797994,33.431390803504456],[-111.58173683227322,33.429469841557],[-111.58086939515964,33.42946970264719],[-111.58087237846826,33.43501528343672],[-111.58173641761998,33.435015096848026],[-111.58173623660889,33.43672115733764],[-111.58087329470881,33.43672079589896],[-111.58086196066932,33.44405586584208],[-111.59798701073899,33.4440616950247],[-111.59798181231902,33.45116715083319],[-111.61540770389732,33.45116950491533],[-111.61541235818473,33.4460190437834],[-111.61596420081608,33.443805184265464],[-111.61599214960285,33.44047061917266],[-111.61594700153361,33.43916542835728],[-111.61544243244309,33.4372984829347],[-111.61548602342906,33.43321173238794]],[[-111.59777630394547,33.3877247238416],[-111.59785324457454,33.38839504637158],[-111.59784909641624,33.384381335887355],[-111.59819180552044,33.38338344382434],[-111.5981944353167,33.3790588236783],[-111.58085211921069,33.37896144053942],[-111.58086792621431,33.393454389369445],[-111.59348778335404,33.393461890906146],[-111.59349107815336,33.38770493080999],[-111.59777630394547,33.3877247238416]],[[-111.60073568586239,33.32094431079725],[-111.60086400944485,33.32090016717076],[-111.59965598773734,33.32089275600058],[-111.60073568586239,33.32094431079725]],[[-111.6333372998545,33.30568601979614],[-111.63181068609421,33.30537549234348],[-111.6295775144045,33.30407937837729],[-111.6282873815261,33.303737880886935],[-111.62695573035766,33.30382602023928],[-111.62558577888849,33.30436719910404],[-111.62536876849929,33.30403509175821],[-111.62354583215773,33.30479578064128],[-111.62180345279177,33.30317890275642],[-111.61802016777366,33.30146533180616],[-111.61796105983642,33.30103168582079],[-111.61714556531295,33.30103435512518],[-111.61708097790448,33.301395729077996],[-111.61388642270526,33.300099674482865],[-111.61004887221429,33.29912982427817],[-111.60477077397792,33.298476965142854],[-111.60471753955896,33.29569787463158],[-111.60077226025332,33.295700289954844],[-111.6007402615113,33.302843985363644],[-111.60274582776815,33.30286246290176],[-111.60276853481993,33.30467367622551],[-111.60503402296897,33.30469103475493],[-111.60498620697525,33.299940999766854],[-111.60710864236627,33.299916803186335],[-111.61060480401194,33.30043896881538],[-111.61518428479071,33.301856941096226],[-111.62126583964466,33.305806050771224],[-111.6276459524077,33.311834075260805],[-111.6332617488976,33.31831188080555],[-111.63530228911647,33.31875156364204],[-111.63503809748927,33.30568494595318],[-111.6333372998545,33.30568601979614]],[[-111.61961567902475,33.40405321661993],[-111.61558853936853,33.40411441668378],[-111.6155763729138,33.40764883436117],[-111.60685303406989,33.40764659319098],[-111.6068338371298,33.4149146966099],[-111.60791665387332,33.41491189213436],[-111.6079052852637,33.41961574721727],[-111.60882132026579,33.41961829971844],[-111.60882354597928,33.41870693600298],[-111.61173178372073,33.41870336414659],[-111.61160045374476,33.419281617006725],[-111.61099254221767,33.41923534569553],[-111.61098614780236,33.42141643309354],[-111.61229077354155,33.42141946883755],[-111.61228723463259,33.42215353217864],[-111.61553427975383,33.42215615951354],[-111.61553071474295,33.42604513099154],[-111.61756614795154,33.4260473082479],[-111.61756532065068,33.426289165763336],[-111.61827274350445,33.42645302506415],[-111.61665204452265,33.42880448834118],[-111.61688572286577,33.42948115882691],[-111.61552543412903,33.42948061025411],[-111.61553280678858,33.43509695375295],[-111.61747123840344,33.435100854358915],[-111.61746872767453,33.43669548955369],[-111.61551663063896,33.43669324630126],[-111.61551592690762,33.43699441471444],[-111.62409137636425,33.4370079684853],[-111.62410417269109,33.42971319541492],[-111.63283057572515,33.429725087548874],[-111.63282322171939,33.432371499625006],[-111.63697632682036,33.43237873887817],[-111.63698042459313,33.43129903329388],[-111.6359831244344,33.43129225297836],[-111.63598382669527,33.43089401140055],[-111.63698193618008,33.43090052120887],[-111.63699187475788,33.42419844713076],[-111.63494718857112,33.42419498978018],[-111.63501969365784,33.42593132234406],[-111.63369030693208,33.425928104672685],[-111.63283335332486,33.425419503478075],[-111.63283791627833,33.42417497065731],[-111.63149621818332,33.42417338936445],[-111.63149670030273,33.422207744658174],[-111.63103325918286,33.422207118436475],[-111.63103837143848,33.42107672467542],[-111.63277436673661,33.42122911265029],[-111.63289137634582,33.41865237326343],[-111.62834136740982,33.41864363640455],[-111.6283569409065,33.41551143349795],[-111.63290211722348,33.41551706360091],[-111.6328970461072,33.41699754814873],[-111.63692725685813,33.41700738846394],[-111.63699441792664,33.42221640924474],[-111.65879007241813,33.42225532806238],[-111.65882889472418,33.415565761530154],[-111.66308685730779,33.4155717993844],[-111.6630743997338,33.417834260900975],[-111.66516666981254,33.41783714780961],[-111.66516097275543,33.41866603129446],[-111.66723427370866,33.418670836786916],[-111.6672511486631,33.41505529924747],[-111.66047378553299,33.415041484317534],[-111.6604909813394,33.4080495734914],[-111.65927201357754,33.408047050713414],[-111.65927077479193,33.40821992200055],[-111.65887557043494,33.40821800233046],[-111.65887535103532,33.40804622719729],[-111.65354423244402,33.40803828317784],[-111.65354453135812,33.408433394351206],[-111.65295565357394,33.408432026905835],[-111.65295582125873,33.408037445128734],[-111.64998669516005,33.40803317107588],[-111.64996721057301,33.411006666380075],[-111.64881546780275,33.410998961675055],[-111.64882938325593,33.4080585543898],[-111.6414092961811,33.408044702634584],[-111.6413830215276,33.4133072968523],[-111.64083726543276,33.41330625691605],[-111.64083753786555,33.4149829416867],[-111.6371572185785,33.414962907614004],[-111.63715520443425,33.41140470467248],[-111.63695787933534,33.41140456383916],[-111.63718207512488,33.40431473266347],[-111.64407522560104,33.404336667103934],[-111.64533394022935,33.404038644381025],[-111.64621380287916,33.4043268077795],[-111.64994377284268,33.40433697276162],[-111.64995214814269,33.4005132118778],[-111.6480582049387,33.40051187409766],[-111.64805518338981,33.39872072832549],[-111.64157759006088,33.3987101075849],[-111.64159816790253,33.39320508536412],[-111.63296148025384,33.39319388434166],[-111.63296156250256,33.38609198469095],[-111.63260118443354,33.3860911604065],[-111.63259911611651,33.394275028272716],[-111.63396313186757,33.39427634233502],[-111.63395248066755,33.39607298699879],[-111.63258996359245,33.396071261382],[-111.63258580705131,33.39688688845667],[-111.62420760805351,33.396875667672944],[-111.62422322016019,33.39318459043726],[-111.61540306692766,33.3931717349744],[-111.61540245661674,33.39347295802285],[-111.6190487125543,33.393477635199865],[-111.61902612716264,33.399154419020086],[-111.62388870297298,33.39915636940092],[-111.62388429688991,33.40047306668969],[-111.61963145275149,33.40046693047284],[-111.61961567902475,33.40405321661993]],[[-111.61960861417776,33.45117314176689],[-111.62285565811354,33.451176445526684],[-111.62285601022029,33.45040755484703],[-111.62339909305479,33.450409445534525],[-111.623396515051,33.45117698743704],[-111.62410292686384,33.4511776922973],[-111.62410331401843,33.45135551327628],[-111.62610184814089,33.45120826949643],[-111.6261057304412,33.449547942010575],[-111.62394020781853,33.44954449249619],[-111.62394168560598,33.447734134647206],[-111.61961386539788,33.447726696497355],[-111.61960861417776,33.45117314176689]],[[-111.63052032899533,33.444229599187665],[-111.62719707108867,33.444222469694125],[-111.6271929526364,33.44774012064918],[-111.63055437353627,33.44774586443928],[-111.63055337562162,33.4486532414174],[-111.63009373668478,33.44955744105581],[-111.63260040923807,33.44956162011266],[-111.63260863623951,33.4442338899769],[-111.63152612548008,33.444231689641185],[-111.63152499624998,33.445028210293465],[-111.63051969454798,33.4450236439804],[-111.63052032899533,33.444229599187665]],[[-111.63488036566442,33.2988721572631],[-111.63475976170216,33.29239558133681],[-111.63085599517592,33.29236351580068],[-111.63092425927684,33.2954788730888],[-111.63474638342257,33.298757324201866],[-111.63458118591615,33.29896593996701],[-111.63488036566442,33.2988721572631]],[[-111.64339287408278,33.478895845649085],[-111.63689834481447,33.47879974314642],[-111.63689802722268,33.476985692776935],[-111.65000512315966,33.477041067117874],[-111.65000550822457,33.47884639447616],[-111.65420440041316,33.47887090046707],[-111.65420524471176,33.47706397318046],[-111.656364506528,33.477074575199914],[-111.65636663890632,33.47888375048347],[-111.65744958319303,33.4788902300856],[-111.65745135269941,33.47707987809527],[-111.65853794512407,33.47708517544069],[-111.65853221348908,33.473453727462704],[-111.66726064171351,33.47350351883105],[-111.66730561751656,33.4652163569952],[-111.66653903144585,33.46509292045982],[-111.6665448156836,33.46434282628164],[-111.66934305165465,33.464288216052154],[-111.6693564989758,33.46231874812156],[-111.67154121400795,33.46231636848022],[-111.67153225288733,33.45857867838223],[-111.6673333994785,33.45858042244314],[-111.66735947521003,33.453254262383105],[-111.66506374673465,33.45324748813803],[-111.66507291053831,33.45158647156919],[-111.66290500694006,33.45158205198968],[-111.66286797902208,33.4586838080039],[-111.64976125176845,33.45865792055851],[-111.64975770786256,33.45949534568652],[-111.64881322632942,33.45943614121046],[-111.64881725903018,33.45865576212406],[-111.6434054526566,33.45864324363598],[-111.64339411920773,33.46226421185613],[-111.64447270272314,33.46233611712519],[-111.64446654149025,33.46420693056029],[-111.64546993768192,33.464211878894446],[-111.64546287267414,33.46595818467768],[-111.64007288754142,33.46576991875161],[-111.63889021121535,33.465178519366575],[-111.63699426781741,33.46343146236855],[-111.63699905157638,33.462245271656315],[-111.63798406774127,33.462248315734044],[-111.63799463210584,33.45863036940781],[-111.63244970733669,33.458617775839436],[-111.63244054173467,33.48056354777366],[-111.6423135583774,33.48060916299922],[-111.64230895165934,33.47889257642828],[-111.64339287408278,33.478895845649085]],[[-111.63697815372898,33.43815806407581],[-111.63280702321049,33.43816040124417],[-111.63279982975887,33.44058144308362],[-111.63912879227549,33.440579008559986],[-111.63913872556952,33.43869006115451],[-111.63697647644743,33.43868217932431],[-111.63697815372898,33.43815806407581]],[[-111.63464082755485,33.30180206446894],[-111.6349418978417,33.30179760035165],[-111.63493756394561,33.30159149992507],[-111.63463649436682,33.301595964035734],[-111.63464082755485,33.30180206446894]],[[-111.63470046366857,33.304638221011665],[-111.63496881835884,33.304634241688376],[-111.63496448323522,33.30442814135331],[-111.63469613024996,33.30443212067313],[-111.63470046366857,33.304638221011665]],[[-111.64424398462818,33.33686531229307],[-111.64476428108415,33.33686968321719],[-111.64547493967326,33.335690761119835],[-111.64422807390555,33.335679954043314],[-111.64424398462818,33.33686531229307]],[[-111.64460518143306,33.3406138312359],[-111.64435471695285,33.34299984482241],[-111.64864832895961,33.343031806148794],[-111.64859671489624,33.33942532843729],[-111.64500578412797,33.33940226814661],[-111.64460518143306,33.3406138312359]],[[-111.6469464844049,33.33636499326964],[-111.64855226492793,33.33637952762373],[-111.64854236004666,33.335717284400545],[-111.6475341987984,33.3357085756124],[-111.6469464844049,33.33636499326964]],[[-111.65746606986524,33.35041479876125],[-111.65322011766588,33.350381088233696],[-111.65322091344811,33.35042829637805],[-111.65746606986524,33.35041479876125]],[[-111.6596454207658,33.35043204450299],[-111.66195837964166,33.350494631592504],[-111.66195850243261,33.35044914494206],[-111.6596454207658,33.35043204450299]],[[-111.6704794106344,33.33598968168919],[-111.66154971136,33.335826461979295],[-111.66168825127463,33.343139465304006],[-111.66603230832328,33.34317586069036],[-111.66607278004967,33.34497532405802],[-111.67031183428713,33.34501266374966],[-111.67041619603333,33.35007507475721],[-111.67070498309418,33.35007084636067],[-111.6704794106344,33.33598968168919]],[[-111.70186268890306,33.41830245823198],[-111.70186793575843,33.417499932695655],[-111.69752210097391,33.41751706484277],[-111.69751799149034,33.41784961411889],[-111.69719001904721,33.41794248059854],[-111.69545299198478,33.417947639630036],[-111.69546336058568,33.41643878184275],[-111.69092421748806,33.41645533815385],[-111.69092301890639,33.41691981629838],[-111.6898700571731,33.41692377220761],[-111.6898677799806,33.41752635237487],[-111.6909198666224,33.41752555989074],[-111.6909145796581,33.41853943768695],[-111.68884565967417,33.418506242813756],[-111.6888194758738,33.422763878194175],[-111.6873791399795,33.422766495622355],[-111.68720684289887,33.41679206647425],[-111.68467670335833,33.41680384946681],[-111.68467063006953,33.417957188360624],[-111.6854602273111,33.41795387261004],[-111.6854580493213,33.41877811577892],[-111.68532569150499,33.419254991889076],[-111.6846630490005,33.419397189260735],[-111.68465862352282,33.42023761177241],[-111.68500977188909,33.42023585775512],[-111.68500654787364,33.4206967600546],[-111.68465619645403,33.42069856604399],[-111.68464369265298,33.42307290076996],[-111.68721660057582,33.4230694431923],[-111.68717630358844,33.42653857048976],[-111.68526381806382,33.426538841538914],[-111.6852465694845,33.42826472606826],[-111.684593854191,33.42826582393819],[-111.68458929816386,33.428750999655776],[-111.68560214465388,33.428747394719956],[-111.68559542568629,33.43005012513258],[-111.68766374711645,33.43004846521747],[-111.68766317185343,33.43026833604966],[-111.684601654235,33.43027088825283],[-111.68458099764273,33.43187866487785],[-111.69295935893096,33.43186933023677],[-111.69295038915212,33.43285964493622],[-111.6931882548383,33.43285927755299],[-111.69319136428571,33.43253101325151],[-111.69582144546432,33.43252919859466],[-111.69582162252007,33.43226142954942],[-111.69607992437008,33.43226095684596],[-111.69607958172698,33.43252902766903],[-111.69740645386561,33.43252807747956],[-111.69740480702218,33.4327826772794],[-111.69760148733987,33.432782369281966],[-111.69760317145676,33.43252212218562],[-111.70153617394801,33.43251444296937],[-111.70154879068555,33.43013618506323],[-111.71884244524911,33.43010735738145],[-111.71890440519638,33.41922294088642],[-111.71598943615047,33.419230350671775],[-111.715286487539,33.41744577034887],[-111.711576388139,33.41745864797499],[-111.71157455974584,33.41790389119902],[-111.7106241220136,33.4179023162842],[-111.71062515084634,33.41746532054753],[-111.71036296275003,33.417464884814564],[-111.71036163471405,33.418028306193364],[-111.70627470589073,33.4180379300061],[-111.706285335866,33.41634217960255],[-111.70608872391277,33.41633085245125],[-111.70494347283332,33.416936300249326],[-111.7031528063508,33.41744168695416],[-111.70275812148516,33.418015424096055],[-111.70186268890306,33.41830245823198]],[[-111.68560877957114,33.4043896490796],[-111.68629788935309,33.4043964280876],[-111.68628454946726,33.40535614804489],[-111.6865611148727,33.40535858548223],[-111.68653600288879,33.406933653174285],[-111.6876842631079,33.406929732555724],[-111.68769354890357,33.40839108015199],[-111.71072875468957,33.4082375755843],[-111.71077081227477,33.40342740551623],[-111.70981695028028,33.39953750602349],[-111.70928186204974,33.39831635272754],[-111.7065711840656,33.3940500006224],[-111.68491700391192,33.39412385351179],[-111.68479537356214,33.40367986450336],[-111.68561816855697,33.40368772207706],[-111.68560877957114,33.4043896490796]],[[-111.75365530540108,33.47570211123587],[-111.75369034601638,33.477266706363174],[-111.76169772006388,33.47728300064067],[-111.76178625494681,33.47264132427436],[-111.75365530540108,33.47570211123587]],[[-111.83986456214976,33.38431774853986],[-111.83823058653371,33.3844778119929],[-111.83524261752639,33.3843443074186],[-111.83521892575872,33.385456762472494],[-111.83976671447998,33.38535460604972],[-111.83986456214976,33.38431774853986]],[[-111.85261155027797,33.444147659605036],[-111.85260112865616,33.444699708026185],[-111.85316829791722,33.44469326492692],[-111.8531688838248,33.44414152430997],[-111.85261155027797,33.444147659605036]]],[[[-111.59771981201143,33.420445516995464],[-111.59531864594497,33.42044432188427],[-111.59527232330478,33.41960595394251],[-111.59771620649649,33.419673547338235],[-111.59771981201143,33.420445516995464]]],[[[-111.59818030482487,33.42969272086085],[-111.60230390476907,33.42969380250076],[-111.60229610938673,33.43320787492105],[-111.59817670621038,33.43320976622837],[-111.59818030482487,33.42969272086085]]],[[[-111.61092047095129,33.408447975825126],[-111.60916203754168,33.408443629273286],[-111.60916317378451,33.40793409967298],[-111.61092410249343,33.40793400332269],[-111.61092047095129,33.408447975825126]]],[[[-111.61041440307108,33.44046662584257],[-111.61042265230489,33.4369913093777],[-111.61256554198467,33.43699163736394],[-111.61255901728173,33.44046695757249],[-111.61041440307108,33.44046662584257]]],[[[-111.615182376879,33.408457034366734],[-111.61289978318149,33.40845036505417],[-111.6127342341617,33.407975103940835],[-111.61518390916399,33.40797487495403],[-111.615182376879,33.408457034366734]]],[[[-111.61503939097767,33.43702019852317],[-111.61560584819462,33.43920365279066],[-111.61564783423515,33.44046817527022],[-111.61312418262814,33.44046708340647],[-111.61313455492974,33.43701941318657],[-111.61503939097767,33.43702019852317]]],[[[-111.6185849052538,33.41792552646319],[-111.61621537080408,33.416969138115036],[-111.61621830294254,33.41678337391136],[-111.61750660064304,33.41679031588913],[-111.61750906007516,33.41549479526862],[-111.61859548520546,33.4154963435837],[-111.6185849052538,33.41792552646319]]],[[[-111.61956010710544,33.43050012887066],[-111.61955951028494,33.4309189553111],[-111.61855952905388,33.430916555923915],[-111.61856087592916,33.430497731305884],[-111.61956010710544,33.43050012887066]]],[[[-111.61976203928954,33.43669786206891],[-111.61971418261243,33.4359011685009],[-111.6207167704057,33.435902803941],[-111.62071653007507,33.43669941845501],[-111.61976203928954,33.43669786206891]]],[[[-111.62077385797069,33.41327910199207],[-111.62185419980298,33.41327535565988],[-111.62184809714337,33.41495103867291],[-111.62076361690188,33.4149495884247],[-111.62077385797069,33.41327910199207]]],[[[-111.62179597473232,33.43670107618989],[-111.62179755946968,33.435770201828454],[-111.62241274494272,33.435755036490875],[-111.62227129362542,33.43670180412829],[-111.62179597473232,33.43670107618989]]],[[[-111.6360713498159,33.39427831098969],[-111.63448279240542,33.394276022808995],[-111.63448197793666,33.39349653064992],[-111.63607891679652,33.393498742168724],[-111.6360713498159,33.39427831098969]]],[[[-111.63715420321503,33.39951847952199],[-111.636862288134,33.39904298930552],[-111.63666856897242,33.39914263709745],[-111.63649184308113,33.39889498979281],[-111.63610390875508,33.3990925488188],[-111.63566090306328,33.39848029952113],[-111.63629203162485,33.398158788632614],[-111.63609241591892,33.39705595055205],[-111.6413211871268,33.39706216748343],[-111.64131986489512,33.397524386856475],[-111.63970999211692,33.40049603264161],[-111.63717267346419,33.40049301443336],[-111.63715420321503,33.39951847952199]]],[[[-111.63689656410364,33.47286065495335],[-111.63689602698079,33.47154088513968],[-111.63905286274252,33.47154793264011],[-111.6390556114254,33.473364340887024],[-111.63589850218756,33.473353886482876],[-111.63589768311833,33.47285921968237],[-111.63689656410364,33.47286065495335]]],[[[-111.63630061093632,33.43933859790259],[-111.63650956907163,33.4390845916774],[-111.63659762132477,33.439337712667594],[-111.63630061093632,33.43933859790259]]],[[[-111.64027544994943,33.39691014794026],[-111.63868696615248,33.39690808492535],[-111.63868976756417,33.39607779902483],[-111.64027873008465,33.39607973227884],[-111.64027544994943,33.39691014794026]]],[[[-111.64128883299301,33.393535258655554],[-111.64132992082472,33.39428574141218],[-111.63923380613222,33.39428280620143],[-111.63923753228376,33.3935305610278],[-111.64128883299301,33.393535258655554]]],[[[-111.64132144487107,33.396868970448104],[-111.64079904753034,33.39691094512461],[-111.64080232320437,33.3960803653146],[-111.64132574972629,33.39608099577152],[-111.64132144487107,33.396868970448104]]],[[[-111.64563090890233,33.46497624675832],[-111.64564222029605,33.462339234796204],[-111.64791128066602,33.46234638182965],[-111.64791207462154,33.46409437178766],[-111.64987573913598,33.464103743855915],[-111.64987103525803,33.466045809777505],[-111.64602748041531,33.4660277743144],[-111.64608983616147,33.464977369187004],[-111.64563090890233,33.46497624675832]]],[[[-111.65095219430616,33.47250661592539],[-111.65056238571859,33.47191517683728],[-111.6500019376989,33.4718560908402],[-111.65000198125138,33.471593870858534],[-111.65094872543433,33.471599244706375],[-111.65095219430616,33.47250661592539]]],[[[-111.65560288581457,33.463253972725596],[-111.65509758244448,33.463252537027486],[-111.65510185404011,33.462374002605834],[-111.65560321898813,33.4623747834631],[-111.65560288581457,33.463253972725596]]],[[[-111.65906232916167,33.41353517033789],[-111.6588643868889,33.41353479795121],[-111.658863312915,33.41312061170199],[-111.65906289414302,33.413120909042725],[-111.65906232916167,33.41353517033789]]],[[[-111.66273225343143,33.464176517639274],[-111.66144958429403,33.46419025757541],[-111.66145267531232,33.463288198811675],[-111.66196093031455,33.4632895452409],[-111.6619593866451,33.4637408510262],[-111.6627514499647,33.46374257681765],[-111.66273225343143,33.464176517639274]]],[[[-111.66708741961612,33.45506808088584],[-111.66708276837196,33.455976688833395],[-111.66504861716628,33.455970101360634],[-111.66505362501394,33.45506231932127],[-111.66708741961612,33.45506808088584]]],[[[-111.66610377127772,33.47121422698729],[-111.66705608581601,33.47121779838333],[-111.66705764066364,33.47166695671539],[-111.66610490385169,33.471681670845925],[-111.66610377127772,33.47121422698729]]],[[[-111.66654519676551,33.46986594217742],[-111.66653825973687,33.46805311042583],[-111.66704432452849,33.46805548755274],[-111.66705029349336,33.46986778174633],[-111.66654519676551,33.46986594217742]]],[[[-111.69089577828308,33.42205821449905],[-111.69089243523918,33.4227586162255],[-111.68985443131785,33.42276062522553],[-111.68985680790358,33.422060440893944],[-111.69089577828308,33.42205821449905]]],[[[-111.7103355729671,33.4223320215934],[-111.70706726853778,33.42233423477596],[-111.70709768953107,33.418252901542274],[-111.71035871670743,33.41824600158692],[-111.71035746633025,33.418468734862024],[-111.70985927089579,33.41855185219557],[-111.70983989688216,33.421937845079114],[-111.71033758345423,33.421939848790196],[-111.7103355729671,33.4223320215934]]]]}}]}